[
    {
        "zip": "10200",
        "province": "กรุงเทพมหานคร",
        "district": "พระนคร"
    },
    {
        "zip": "10300",
        "province": "กรุงเทพมหานคร",
        "district": "ดุสิต"
    },
    {
        "zip": "10530",
        "province": "กรุงเทพมหานคร",
        "district": "หนองจอก"
    },
    {
        "zip": "10500",
        "province": "กรุงเทพมหานคร",
        "district": "บางรัก"
    },
    {
        "zip": "10220",
        "province": "กรุงเทพมหานคร",
        "district": "บางเขน"
    },
    {
        "zip": "10240",
        "province": "กรุงเทพมหานคร",
        "district": "บางกะปิ"
    },
    {
        "zip": "10330",
        "province": "กรุงเทพมหานคร",
        "district": "ปทุมวัน"
    },
    {
        "zip": "10100",
        "province": "กรุงเทพมหานคร",
        "district": "ป้อมปราบศัตรูพ่าย"
    },
    {
        "zip": "10260",
        "province": "กรุงเทพมหานคร",
        "district": "พระโขนง"
    },
    {
        "zip": "10510",
        "province": "กรุงเทพมหานคร",
        "district": "มีนบุรี"
    },
    {
        "zip": "10520",
        "province": "กรุงเทพมหานคร",
        "district": "ลาดกระบัง"
    },
    {
        "zip": "10120",
        "province": "กรุงเทพมหานคร",
        "district": "ยานนาวา"
    },
    {
        "zip": "10100",
        "province": "กรุงเทพมหานคร",
        "district": "สัมพันธวงศ์"
    },
    {
        "zip": "10400",
        "province": "กรุงเทพมหานคร",
        "district": "พญาไท"
    },
    {
        "zip": "10600",
        "province": "กรุงเทพมหานคร",
        "district": "ธนบุรี"
    },
    {
        "zip": "10600",
        "province": "กรุงเทพมหานคร",
        "district": "บางกอกใหญ่"
    },
    {
        "zip": "10310",
        "province": "กรุงเทพมหานคร",
        "district": "ห้วยขวาง"
    },
    {
        "zip": "10600",
        "province": "กรุงเทพมหานคร",
        "district": "คลองสาน"
    },
    {
        "zip": "10170",
        "province": "กรุงเทพมหานคร",
        "district": "ตลิ่งชัน"
    },
    {
        "zip": "10700",
        "province": "กรุงเทพมหานคร",
        "district": "บางกอกน้อย"
    },
    {
        "zip": "10150",
        "province": "กรุงเทพมหานคร",
        "district": "บางขุนเทียน"
    },
    {
        "zip": "10160",
        "province": "กรุงเทพมหานคร",
        "district": "ภาษีเจริญ"
    },
    {
        "zip": "10160",
        "province": "กรุงเทพมหานคร",
        "district": "หนองแขม"
    },
    {
        "zip": "10140",
        "province": "กรุงเทพมหานคร",
        "district": "ราษฎร์บูรณะ"
    },
    {
        "zip": "10700",
        "province": "กรุงเทพมหานคร",
        "district": "บางพลัด"
    },
    {
        "zip": "10400",
        "province": "กรุงเทพมหานคร",
        "district": "ดินแดง"
    },
    {
        "zip": "10240",
        "province": "กรุงเทพมหานคร",
        "district": "บึงกุ่ม"
    },
    {
        "zip": "10120",
        "province": "กรุงเทพมหานคร",
        "district": "สาทร"
    },
    {
        "zip": "10800",
        "province": "กรุงเทพมหานคร",
        "district": "บางซื่อ"
    },
    {
        "zip": "10900",
        "province": "กรุงเทพมหานคร",
        "district": "จตุจักร"
    },
    {
        "zip": "10120",
        "province": "กรุงเทพมหานคร",
        "district": "บางคอแหลม"
    },
    {
        "zip": "10250",
        "province": "กรุงเทพมหานคร",
        "district": "ประเวศ"
    },
    {
        "zip": "10110",
        "province": "กรุงเทพมหานคร",
        "district": "คลองเตย"
    },
    {
        "zip": "10250",
        "province": "กรุงเทพมหานคร",
        "district": "สวนหลวง"
    },
    {
        "zip": "10150",
        "province": "กรุงเทพมหานคร",
        "district": "จอมทอง"
    },
    {
        "zip": "10210",
        "province": "กรุงเทพมหานคร",
        "district": "ดอนเมือง"
    },
    {
        "zip": "10400",
        "province": "กรุงเทพมหานคร",
        "district": "ราชเทวี"
    },
    {
        "zip": "10230",
        "province": "กรุงเทพมหานคร",
        "district": "ลาดพร้าว"
    },
    {
        "zip": "10110",
        "province": "กรุงเทพมหานคร",
        "district": "วัฒนา"
    },
    {
        "zip": "10160",
        "province": "กรุงเทพมหานคร",
        "district": "บางแค"
    },
    {
        "zip": "10210",
        "province": "กรุงเทพมหานคร",
        "district": "หลักสี่"
    },
    {
        "zip": "10220",
        "province": "กรุงเทพมหานคร",
        "district": "สายไหม"
    },
    {
        "zip": "10230",
        "province": "กรุงเทพมหานคร",
        "district": "คันนายาว"
    },
    {
        "zip": "10240",
        "province": "กรุงเทพมหานคร",
        "district": "สะพานสูง"
    },
    {
        "zip": "10310",
        "province": "กรุงเทพมหานคร",
        "district": "วังทองหลาง"
    },
    {
        "zip": "10510",
        "province": "กรุงเทพมหานคร",
        "district": "คลองสามวา"
    },
    {
        "zip": "10260",
        "province": "กรุงเทพมหานคร",
        "district": "บางนา"
    },
    {
        "zip": "10170",
        "province": "กรุงเทพมหานคร",
        "district": "ทวีวัฒนา"
    },
    {
        "zip": "10140",
        "province": "กรุงเทพมหานคร",
        "district": "ทุ่งครุ"
    },
    {
        "zip": "10150",
        "province": "กรุงเทพมหานคร",
        "district": "บางบอน"
    },
    {
        "zip": "10270",
        "province": "สมุทรปราการ",
        "district": "เมืองสมุทรปราการ"
    },
    {
        "zip": "10280",
        "province": "สมุทรปราการ",
        "district": "เมืองสมุทรปราการ"
    },
    {
        "zip": "10560",
        "province": "สมุทรปราการ",
        "district": "บางบ่อ"
    },
    {
        "zip": "10550",
        "province": "สมุทรปราการ",
        "district": "บางบ่อ"
    },
    {
        "zip": "10540",
        "province": "สมุทรปราการ",
        "district": "บางพลี"
    },
    {
        "zip": "10130",
        "province": "สมุทรปราการ",
        "district": "พระประแดง"
    },
    {
        "zip": "10290",
        "province": "สมุทรปราการ",
        "district": "พระสมุทรเจดีย์"
    },
    {
        "zip": "10540",
        "province": "สมุทรปราการ",
        "district": "บางเสาธง"
    },
    {
        "zip": "11000",
        "province": "นนทบุรี",
        "district": "เมืองนนทบุรี"
    },
    {
        "zip": "11130",
        "province": "นนทบุรี",
        "district": "บางกรวย"
    },
    {
        "zip": "11140",
        "province": "นนทบุรี",
        "district": "บางใหญ่"
    },
    {
        "zip": "11110",
        "province": "นนทบุรี",
        "district": "บางบัวทอง"
    },
    {
        "zip": "11150",
        "province": "นนทบุรี",
        "district": "ไทรน้อย"
    },
    {
        "zip": "11120",
        "province": "นนทบุรี",
        "district": "ปากเกร็ด"
    },
    {
        "zip": "12000",
        "province": "ปทุมธานี",
        "district": "เมืองปทุมธานี"
    },
    {
        "zip": "12120",
        "province": "ปทุมธานี",
        "district": "คลองหลวง"
    },
    {
        "zip": "12130",
        "province": "ปทุมธานี",
        "district": "ธัญบุรี"
    },
    {
        "zip": "12110",
        "province": "ปทุมธานี",
        "district": "ธัญบุรี"
    },
    {
        "zip": "12170",
        "province": "ปทุมธานี",
        "district": "หนองเสือ"
    },
    {
        "zip": "12140",
        "province": "ปทุมธานี",
        "district": "ลาดหลุมแก้ว"
    },
    {
        "zip": "12130",
        "province": "ปทุมธานี",
        "district": "ลำลูกกา"
    },
    {
        "zip": "12150",
        "province": "ปทุมธานี",
        "district": "ลำลูกกา"
    },
    {
        "zip": "12160",
        "province": "ปทุมธานี",
        "district": "สามโคก"
    },
    {
        "zip": "13000",
        "province": "พระนครศรีอยุธยา"
    },
    {
        "zip": "13130",
        "province": "พระนครศรีอยุธยา",
        "district": "ท่าเรือ"
    },
    {
        "zip": "13260",
        "province": "พระนครศรีอยุธยา",
        "district": "นครหลวง"
    },
    {
        "zip": "13190",
        "province": "พระนครศรีอยุธยา",
        "district": "บางไทร"
    },
    {
        "zip": "13290",
        "province": "พระนครศรีอยุธยา",
        "district": "บางไทร"
    },
    {
        "zip": "13250",
        "province": "พระนครศรีอยุธยา",
        "district": "บางบาล"
    },
    {
        "zip": "13160",
        "province": "พระนครศรีอยุธยา",
        "district": "บางปะอิน"
    },
    {
        "zip": "13180",
        "province": "พระนครศรีอยุธยา",
        "district": "บางปะอิน"
    },
    {
        "zip": "13170",
        "province": "พระนครศรีอยุธยา",
        "district": "บางปะอิน"
    },
    {
        "zip": "13220",
        "province": "พระนครศรีอยุธยา",
        "district": "บางปะหัน"
    },
    {
        "zip": "13120",
        "province": "พระนครศรีอยุธยา",
        "district": "ผักไห่"
    },
    {
        "zip": "13280",
        "province": "พระนครศรีอยุธยา",
        "district": "ผักไห่"
    },
    {
        "zip": "13140",
        "province": "พระนครศรีอยุธยา",
        "district": "ภาชี"
    },
    {
        "zip": "13230",
        "province": "พระนครศรีอยุธยา",
        "district": "ลาดบัวหลวง"
    },
    {
        "zip": "13170",
        "province": "พระนครศรีอยุธยา",
        "district": "วังน้อย"
    },
    {
        "zip": "13110",
        "province": "พระนครศรีอยุธยา",
        "district": "เสนา"
    },
    {
        "zip": "13270",
        "province": "พระนครศรีอยุธยา",
        "district": "บางซ้าย"
    },
    {
        "zip": "13210",
        "province": "พระนครศรีอยุธยา",
        "district": "อุทัย"
    },
    {
        "zip": "13150",
        "province": "พระนครศรีอยุธยา",
        "district": "มหาราช"
    },
    {
        "zip": "13240",
        "province": "พระนครศรีอยุธยา",
        "district": "บ้านแพรก"
    },
    {
        "zip": "14000",
        "province": "อ่างทอง",
        "district": "เมืองอ่างทอง"
    },
    {
        "zip": "14140",
        "province": "อ่างทอง",
        "district": "ไชโย"
    },
    {
        "zip": "14130",
        "province": "อ่างทอง",
        "district": "ป่าโมก"
    },
    {
        "zip": "14120",
        "province": "อ่างทอง",
        "district": "โพธิ์ทอง"
    },
    {
        "zip": "14150",
        "province": "อ่างทอง",
        "district": "แสวงหา"
    },
    {
        "zip": "14110",
        "province": "อ่างทอง",
        "district": "วิเศษชัยชาญ"
    },
    {
        "zip": "14160",
        "province": "อ่างทอง",
        "district": "สามโก้"
    },
    {
        "zip": "15000",
        "province": "ลพบุรี",
        "district": "เมืองลพบุรี"
    },
    {
        "zip": "13240",
        "province": "ลพบุรี",
        "district": "เมืองลพบุรี"
    },
    {
        "zip": "15160",
        "province": "ลพบุรี",
        "district": "เมืองลพบุรี"
    },
    {
        "zip": "15210",
        "province": "ลพบุรี",
        "district": "เมืองลพบุรี"
    },
    {
        "zip": "15140",
        "province": "ลพบุรี",
        "district": "พัฒนานิคม"
    },
    {
        "zip": "15220",
        "province": "ลพบุรี",
        "district": "พัฒนานิคม"
    },
    {
        "zip": "18220",
        "province": "ลพบุรี",
        "district": "พัฒนานิคม"
    },
    {
        "zip": "15120",
        "province": "ลพบุรี",
        "district": "โคกสำโรง"
    },
    {
        "zip": "15130",
        "province": "ลพบุรี",
        "district": "ชัยบาดาล"
    },
    {
        "zip": "15230",
        "province": "ลพบุรี",
        "district": "ชัยบาดาล"
    },
    {
        "zip": "15190",
        "province": "ลพบุรี",
        "district": "ชัยบาดาล"
    },
    {
        "zip": "15150",
        "province": "ลพบุรี",
        "district": "ท่าวุ้ง"
    },
    {
        "zip": "15180",
        "province": "ลพบุรี",
        "district": "ท่าวุ้ง"
    },
    {
        "zip": "15110",
        "province": "ลพบุรี",
        "district": "บ้านหมี่"
    },
    {
        "zip": "15180",
        "province": "ลพบุรี",
        "district": "บ้านหมี่"
    },
    {
        "zip": "15230",
        "province": "ลพบุรี",
        "district": "ท่าหลวง"
    },
    {
        "zip": "15240",
        "province": "ลพบุรี",
        "district": "สระโบสถ์"
    },
    {
        "zip": "15250",
        "province": "ลพบุรี",
        "district": "โคกเจริญ"
    },
    {
        "zip": "15190",
        "province": "ลพบุรี",
        "district": "ลำสนธิ"
    },
    {
        "zip": "15130",
        "province": "ลพบุรี",
        "district": "ลำสนธิ"
    },
    {
        "zip": "15170",
        "province": "ลพบุรี",
        "district": "หนองม่วง"
    },
    {
        "zip": "16000",
        "province": "สิงห์บุรี",
        "district": "เมืองสิงห์บุรี"
    },
    {
        "zip": "16130",
        "province": "สิงห์บุรี",
        "district": "บางระจัน"
    },
    {
        "zip": "16150",
        "province": "สิงห์บุรี",
        "district": "ค่ายบางระจัน"
    },
    {
        "zip": "16120",
        "province": "สิงห์บุรี",
        "district": "พรหมบุรี"
    },
    {
        "zip": "16160",
        "province": "สิงห์บุรี",
        "district": "พรหมบุรี"
    },
    {
        "zip": "16140",
        "province": "สิงห์บุรี",
        "district": "ท่าช้าง"
    },
    {
        "zip": "16110",
        "province": "สิงห์บุรี",
        "district": "อินทร์บุรี"
    },
    {
        "zip": "17000",
        "province": "ชัยนาท",
        "district": "เมืองชัยนาท"
    },
    {
        "zip": "17110",
        "province": "ชัยนาท",
        "district": "มโนรมย์"
    },
    {
        "zip": "17170",
        "province": "ชัยนาท",
        "district": "มโนรมย์"
    },
    {
        "zip": "17120",
        "province": "ชัยนาท",
        "district": "วัดสิงห์"
    },
    {
        "zip": "17150",
        "province": "ชัยนาท",
        "district": "สรรพยา"
    },
    {
        "zip": "17140",
        "province": "ชัยนาท",
        "district": "สรรคบุรี"
    },
    {
        "zip": "17130",
        "province": "ชัยนาท",
        "district": "หันคา"
    },
    {
        "zip": "17160",
        "province": "ชัยนาท",
        "district": "หันคา"
    },
    {
        "zip": "17120",
        "province": "ชัยนาท",
        "district": "หนองมะโมง"
    },
    {
        "zip": "17130",
        "province": "ชัยนาท",
        "district": "เนินขาม"
    },
    {
        "zip": "18000",
        "province": "สระบุรี",
        "district": "เมืองสระบุรี"
    },
    {
        "zip": "18110",
        "province": "สระบุรี",
        "district": "แก่งคอย"
    },
    {
        "zip": "18260",
        "province": "สระบุรี",
        "district": "แก่งคอย"
    },
    {
        "zip": "18140",
        "province": "สระบุรี",
        "district": "หนองแค"
    },
    {
        "zip": "18250",
        "province": "สระบุรี",
        "district": "หนองแค"
    },
    {
        "zip": "18230",
        "province": "สระบุรี",
        "district": "หนองแค"
    },
    {
        "zip": "18150",
        "province": "สระบุรี",
        "district": "วิหารแดง"
    },
    {
        "zip": "18170",
        "province": "สระบุรี",
        "district": "หนองแซง"
    },
    {
        "zip": "18130",
        "province": "สระบุรี",
        "district": "บ้านหมอ"
    },
    {
        "zip": "18270",
        "province": "สระบุรี",
        "district": "บ้านหมอ"
    },
    {
        "zip": "18210",
        "province": "สระบุรี",
        "district": "ดอนพุด"
    },
    {
        "zip": "18190",
        "province": "สระบุรี",
        "district": "หนองโดน"
    },
    {
        "zip": "18120",
        "province": "สระบุรี",
        "district": "พระพุทธบาท"
    },
    {
        "zip": "18160",
        "province": "สระบุรี",
        "district": "เสาไห้"
    },
    {
        "zip": "18180",
        "province": "สระบุรี",
        "district": "มวกเหล็ก"
    },
    {
        "zip": "30130",
        "province": "สระบุรี",
        "district": "มวกเหล็ก"
    },
    {
        "zip": "18220",
        "province": "สระบุรี",
        "district": "มวกเหล็ก"
    },
    {
        "zip": "18220",
        "province": "สระบุรี",
        "district": "วังม่วง"
    },
    {
        "zip": "18000",
        "province": "สระบุรี",
        "district": "เฉลิมพระเกียรติ"
    },
    {
        "zip": "18240",
        "province": "สระบุรี",
        "district": "เฉลิมพระเกียรติ"
    },
    {
        "zip": "20000",
        "province": "ชลบุรี",
        "district": "เมืองชลบุรี"
    },
    {
        "zip": "20130",
        "province": "ชลบุรี",
        "district": "เมืองชลบุรี"
    },
    {
        "zip": "20170",
        "province": "ชลบุรี",
        "district": "บ้านบึง"
    },
    {
        "zip": "20220",
        "province": "ชลบุรี",
        "district": "บ้านบึง"
    },
    {
        "zip": "20190",
        "province": "ชลบุรี",
        "district": "หนองใหญ่"
    },
    {
        "zip": "20150",
        "province": "ชลบุรี",
        "district": "บางละมุง"
    },
    {
        "zip": "20160",
        "province": "ชลบุรี",
        "district": "พานทอง"
    },
    {
        "zip": "20140",
        "province": "ชลบุรี",
        "district": "พนัสนิคม"
    },
    {
        "zip": "20110",
        "province": "ชลบุรี",
        "district": "ศรีราชา"
    },
    {
        "zip": "20230",
        "province": "ชลบุรี",
        "district": "ศรีราชา"
    },
    {
        "zip": "20120",
        "province": "ชลบุรี",
        "district": "เกาะสีชัง"
    },
    {
        "zip": "20180",
        "province": "ชลบุรี",
        "district": "สัตหีบ"
    },
    {
        "zip": "20250",
        "province": "ชลบุรี",
        "district": "สัตหีบ"
    },
    {
        "zip": "20270",
        "province": "ชลบุรี",
        "district": "บ่อทอง"
    },
    {
        "zip": "20240",
        "province": "ชลบุรี",
        "district": "เกาะจันทร์"
    },
    {
        "zip": "21000",
        "province": "ระยอง",
        "district": "เมืองระยอง"
    },
    {
        "zip": "21160",
        "province": "ระยอง",
        "district": "เมืองระยอง"
    },
    {
        "zip": "21100",
        "province": "ระยอง",
        "district": "เมืองระยอง"
    },
    {
        "zip": "21150",
        "province": "ระยอง",
        "district": "เมืองระยอง"
    },
    {
        "zip": "21130",
        "province": "ระยอง",
        "district": "บ้านฉาง"
    },
    {
        "zip": "21110",
        "province": "ระยอง",
        "district": "แกลง"
    },
    {
        "zip": "21190",
        "province": "ระยอง",
        "district": "แกลง"
    },
    {
        "zip": "22160",
        "province": "ระยอง",
        "district": "แกลง"
    },
    {
        "zip": "21170",
        "province": "ระยอง",
        "district": "แกลง"
    },
    {
        "zip": "21210",
        "province": "ระยอง",
        "district": "วังจันทร์"
    },
    {
        "zip": "21120",
        "province": "ระยอง",
        "district": "บ้านค่าย"
    },
    {
        "zip": "21140",
        "province": "ระยอง",
        "district": "ปลวกแดง"
    },
    {
        "zip": "21110",
        "province": "ระยอง",
        "district": "เขาชะเมา"
    },
    {
        "zip": "21180",
        "province": "ระยอง",
        "district": "นิคมพัฒนา"
    },
    {
        "zip": "22000",
        "province": "จันทบุรี",
        "district": "เมืองจันทบุรี"
    },
    {
        "zip": "22110",
        "province": "จันทบุรี",
        "district": "ขลุง"
    },
    {
        "zip": "22150",
        "province": "จันทบุรี",
        "district": "ขลุง"
    },
    {
        "zip": "22120",
        "province": "จันทบุรี",
        "district": "ท่าใหม่"
    },
    {
        "zip": "22170",
        "province": "จันทบุรี",
        "district": "ท่าใหม่"
    },
    {
        "zip": "22140",
        "province": "จันทบุรี",
        "district": "โป่งน้ำร้อน"
    },
    {
        "zip": "22150",
        "province": "จันทบุรี",
        "district": "มะขาม"
    },
    {
        "zip": "22130",
        "province": "จันทบุรี",
        "district": "แหลมสิงห์"
    },
    {
        "zip": "22190",
        "province": "จันทบุรี",
        "district": "แหลมสิงห์"
    },
    {
        "zip": "22120",
        "province": "จันทบุรี",
        "district": "แหลมสิงห์"
    },
    {
        "zip": "22180",
        "province": "จันทบุรี",
        "district": "สอยดาว"
    },
    {
        "zip": "22160",
        "province": "จันทบุรี",
        "district": "แก่งหางแมว"
    },
    {
        "zip": "22160",
        "province": "จันทบุรี",
        "district": "นายายอาม"
    },
    {
        "zip": "22170",
        "province": "จันทบุรี",
        "district": "นายายอาม"
    },
    {
        "zip": "22210",
        "province": "จันทบุรี",
        "district": "เขาคิชฌกูฏ"
    },
    {
        "zip": "23000",
        "province": "ตราด",
        "district": "เมืองตราด"
    },
    {
        "zip": "23110",
        "province": "ตราด",
        "district": "คลองใหญ่"
    },
    {
        "zip": "23130",
        "province": "ตราด",
        "district": "เขาสมิง"
    },
    {
        "zip": "23150",
        "province": "ตราด",
        "district": "เขาสมิง"
    },
    {
        "zip": "23140",
        "province": "ตราด",
        "district": "บ่อไร่"
    },
    {
        "zip": "23120",
        "province": "ตราด",
        "district": "แหลมงอบ"
    },
    {
        "zip": "23000",
        "province": "ตราด",
        "district": "เกาะกูด"
    },
    {
        "zip": "23170",
        "province": "ตราด",
        "district": "เกาะช้าง"
    },
    {
        "zip": "24000",
        "province": "ฉะเชิงเทรา",
        "district": "เมืองฉะเชิงเทรา"
    },
    {
        "zip": "24110",
        "province": "ฉะเชิงเทรา",
        "district": "บางคล้า"
    },
    {
        "zip": "24150",
        "province": "ฉะเชิงเทรา",
        "district": "บางน้ำเปรี้ยว"
    },
    {
        "zip": "24170",
        "province": "ฉะเชิงเทรา",
        "district": "บางน้ำเปรี้ยว"
    },
    {
        "zip": "24000",
        "province": "ฉะเชิงเทรา",
        "district": "บางน้ำเปรี้ยว"
    },
    {
        "zip": "24130",
        "province": "ฉะเชิงเทรา",
        "district": "บางปะกง"
    },
    {
        "zip": "24180",
        "province": "ฉะเชิงเทรา",
        "district": "บางปะกง"
    },
    {
        "zip": "24140",
        "province": "ฉะเชิงเทรา",
        "district": "บ้านโพธิ์"
    },
    {
        "zip": "24120",
        "province": "ฉะเชิงเทรา",
        "district": "พนมสารคาม"
    },
    {
        "zip": "24120",
        "province": "ฉะเชิงเทรา",
        "district": "ราชสาส์น"
    },
    {
        "zip": "24160",
        "province": "ฉะเชิงเทรา",
        "district": "สนามชัยเขต"
    },
    {
        "zip": "24190",
        "province": "ฉะเชิงเทรา",
        "district": "แปลงยาว"
    },
    {
        "zip": "24160",
        "province": "ฉะเชิงเทรา",
        "district": "ท่าตะเกียบ"
    },
    {
        "zip": "24000",
        "province": "ฉะเชิงเทรา",
        "district": "คลองเขื่อน"
    },
    {
        "zip": "24110",
        "province": "ฉะเชิงเทรา",
        "district": "คลองเขื่อน"
    },
    {
        "zip": "25000",
        "province": "ปราจีนบุรี",
        "district": "เมืองปราจีนบุรี"
    },
    {
        "zip": "25230",
        "province": "ปราจีนบุรี",
        "district": "เมืองปราจีนบุรี"
    },
    {
        "zip": "25110",
        "province": "ปราจีนบุรี",
        "district": "กบินทร์บุรี"
    },
    {
        "zip": "25240",
        "province": "ปราจีนบุรี",
        "district": "กบินทร์บุรี"
    },
    {
        "zip": "25220",
        "province": "ปราจีนบุรี",
        "district": "นาดี"
    },
    {
        "zip": "25150",
        "province": "ปราจีนบุรี",
        "district": "บ้านสร้าง"
    },
    {
        "zip": "25130",
        "province": "ปราจีนบุรี",
        "district": "ประจันตคาม"
    },
    {
        "zip": "25140",
        "province": "ปราจีนบุรี",
        "district": "ศรีมหาโพธิ"
    },
    {
        "zip": "25190",
        "province": "ปราจีนบุรี",
        "district": "ศรีมโหสถ"
    },
    {
        "zip": "26000",
        "province": "นครนายก",
        "district": "เมืองนครนายก"
    },
    {
        "zip": "26130",
        "province": "นครนายก",
        "district": "ปากพลี"
    },
    {
        "zip": "26110",
        "province": "นครนายก",
        "district": "บ้านนา"
    },
    {
        "zip": "26120",
        "province": "นครนายก",
        "district": "องครักษ์"
    },
    {
        "zip": "27000",
        "province": "สระแก้ว",
        "district": "เมืองสระแก้ว"
    },
    {
        "zip": "27260",
        "province": "สระแก้ว",
        "district": "คลองหาด"
    },
    {
        "zip": "27180",
        "province": "สระแก้ว",
        "district": "ตาพระยา"
    },
    {
        "zip": "27210",
        "province": "สระแก้ว",
        "district": "วังน้ำเย็น"
    },
    {
        "zip": "27160",
        "province": "สระแก้ว",
        "district": "วัฒนานคร"
    },
    {
        "zip": "27120",
        "province": "สระแก้ว",
        "district": "อรัญประเทศ"
    },
    {
        "zip": "27000",
        "province": "สระแก้ว",
        "district": "เขาฉกรรจ์"
    },
    {
        "zip": "27120",
        "province": "สระแก้ว",
        "district": "โคกสูง"
    },
    {
        "zip": "27180",
        "province": "สระแก้ว",
        "district": "โคกสูง"
    },
    {
        "zip": "27250",
        "province": "สระแก้ว",
        "district": "วังสมบูรณ์"
    },
    {
        "zip": "30000",
        "province": "นครราชสีมา",
        "district": "เมืองนครราชสีมา"
    },
    {
        "zip": "30310",
        "province": "นครราชสีมา",
        "district": "เมืองนครราชสีมา"
    },
    {
        "zip": "30280",
        "province": "นครราชสีมา",
        "district": "เมืองนครราชสีมา"
    },
    {
        "zip": "30250",
        "province": "นครราชสีมา",
        "district": "ครบุรี"
    },
    {
        "zip": "30330",
        "province": "นครราชสีมา",
        "district": "เสิงสาง"
    },
    {
        "zip": "30260",
        "province": "นครราชสีมา",
        "district": "คง"
    },
    {
        "zip": "30350",
        "province": "นครราชสีมา",
        "district": "บ้านเหลื่อม"
    },
    {
        "zip": "30230",
        "province": "นครราชสีมา",
        "district": "จักราช"
    },
    {
        "zip": "30190",
        "province": "นครราชสีมา",
        "district": "โชคชัย"
    },
    {
        "zip": "30210",
        "province": "นครราชสีมา",
        "district": "ด่านขุนทด"
    },
    {
        "zip": "36220",
        "province": "นครราชสีมา",
        "district": "ด่านขุนทด"
    },
    {
        "zip": "30220",
        "province": "นครราชสีมา",
        "district": "โนนไทย"
    },
    {
        "zip": "30160",
        "province": "นครราชสีมา",
        "district": "โนนสูง"
    },
    {
        "zip": "30420",
        "province": "นครราชสีมา",
        "district": "โนนสูง"
    },
    {
        "zip": "30290",
        "province": "นครราชสีมา",
        "district": "ขามสะแกแสง"
    },
    {
        "zip": "30120",
        "province": "นครราชสีมา",
        "district": "บัวใหญ่"
    },
    {
        "zip": "30180",
        "province": "นครราชสีมา",
        "district": "ประทาย"
    },
    {
        "zip": "30150",
        "province": "นครราชสีมา",
        "district": "ปักธงชัย"
    },
    {
        "zip": "30110",
        "province": "นครราชสีมา",
        "district": "พิมาย"
    },
    {
        "zip": "30240",
        "province": "นครราชสีมา",
        "district": "ห้วยแถลง"
    },
    {
        "zip": "30270",
        "province": "นครราชสีมา",
        "district": "ชุมพวง"
    },
    {
        "zip": "30170",
        "province": "นครราชสีมา",
        "district": "สูงเนิน"
    },
    {
        "zip": "30380",
        "province": "นครราชสีมา",
        "district": "สูงเนิน"
    },
    {
        "zip": "30280",
        "province": "นครราชสีมา",
        "district": "ขามทะเลสอ"
    },
    {
        "zip": "30140",
        "province": "นครราชสีมา",
        "district": "สีคิ้ว"
    },
    {
        "zip": "30340",
        "province": "นครราชสีมา",
        "district": "สีคิ้ว"
    },
    {
        "zip": "30130",
        "province": "นครราชสีมา",
        "district": "ปากช่อง"
    },
    {
        "zip": "30320",
        "province": "นครราชสีมา",
        "district": "ปากช่อง"
    },
    {
        "zip": "30410",
        "province": "นครราชสีมา",
        "district": "หนองบุญมาก"
    },
    {
        "zip": "30440",
        "province": "นครราชสีมา",
        "district": "แก้งสนามนาง"
    },
    {
        "zip": "30360",
        "province": "นครราชสีมา",
        "district": "โนนแดง"
    },
    {
        "zip": "30370",
        "province": "นครราชสีมา",
        "district": "วังน้ำเขียว"
    },
    {
        "zip": "30150",
        "province": "นครราชสีมา",
        "district": "วังน้ำเขียว"
    },
    {
        "zip": "30210",
        "province": "นครราชสีมา",
        "district": "เทพารักษ์"
    },
    {
        "zip": "30270",
        "province": "นครราชสีมา",
        "district": "เมืองยาง"
    },
    {
        "zip": "30220",
        "province": "นครราชสีมา",
        "district": "พระทองคำ"
    },
    {
        "zip": "30270",
        "province": "นครราชสีมา",
        "district": "ลำทะเมนชัย"
    },
    {
        "zip": "30120",
        "province": "นครราชสีมา",
        "district": "บัวลาย"
    },
    {
        "zip": "30430",
        "province": "นครราชสีมา",
        "district": "สีดา"
    },
    {
        "zip": "30230",
        "province": "นครราชสีมา",
        "district": "เฉลิมพระเกียรติ"
    },
    {
        "zip": "30000",
        "province": "นครราชสีมา",
        "district": "เฉลิมพระเกียรติ"
    },
    {
        "zip": "31000",
        "province": "บุรีรัมย์",
        "district": "เมืองบุรีรัมย์"
    },
    {
        "zip": "31190",
        "province": "บุรีรัมย์",
        "district": "คูเมือง"
    },
    {
        "zip": "31160",
        "province": "บุรีรัมย์",
        "district": "กระสัง"
    },
    {
        "zip": "31110",
        "province": "บุรีรัมย์",
        "district": "นางรอง"
    },
    {
        "zip": "31210",
        "province": "บุรีรัมย์",
        "district": "หนองกี่"
    },
    {
        "zip": "31170",
        "province": "บุรีรัมย์",
        "district": "ละหานทราย"
    },
    {
        "zip": "31140",
        "province": "บุรีรัมย์",
        "district": "ประโคนชัย"
    },
    {
        "zip": "31180",
        "province": "บุรีรัมย์",
        "district": "บ้านกรวด"
    },
    {
        "zip": "31120",
        "province": "บุรีรัมย์",
        "district": "พุทไธสง"
    },
    {
        "zip": "31130",
        "province": "บุรีรัมย์",
        "district": "ลำปลายมาศ"
    },
    {
        "zip": "31150",
        "province": "บุรีรัมย์",
        "district": "สตึก"
    },
    {
        "zip": "31220",
        "province": "บุรีรัมย์",
        "district": "ปะคำ"
    },
    {
        "zip": "31230",
        "province": "บุรีรัมย์",
        "district": "นาโพธิ์"
    },
    {
        "zip": "31240",
        "province": "บุรีรัมย์",
        "district": "หนองหงส์"
    },
    {
        "zip": "31250",
        "province": "บุรีรัมย์",
        "district": "พลับพลาชัย"
    },
    {
        "zip": "31000",
        "province": "บุรีรัมย์",
        "district": "ห้วยราช"
    },
    {
        "zip": "31110",
        "province": "บุรีรัมย์",
        "district": "โนนสุวรรณ"
    },
    {
        "zip": "31110",
        "province": "บุรีรัมย์",
        "district": "ชำนิ"
    },
    {
        "zip": "31120",
        "province": "บุรีรัมย์",
        "district": "บ้านใหม่ไชยพจน์"
    },
    {
        "zip": "31260",
        "province": "บุรีรัมย์",
        "district": "โนนดินแดง"
    },
    {
        "zip": "31000",
        "province": "บุรีรัมย์",
        "district": "บ้านด่าน"
    },
    {
        "zip": "31150",
        "province": "บุรีรัมย์",
        "district": "แคนดง"
    },
    {
        "zip": "31110",
        "province": "บุรีรัมย์",
        "district": "เฉลิมพระเกียรติ"
    },
    {
        "zip": "31170",
        "province": "บุรีรัมย์",
        "district": "เฉลิมพระเกียรติ"
    },
    {
        "zip": "32000",
        "province": "สุรินทร์",
        "district": "เมืองสุรินทร์"
    },
    {
        "zip": "32190",
        "province": "สุรินทร์",
        "district": "ชุมพลบุรี"
    },
    {
        "zip": "32120",
        "province": "สุรินทร์",
        "district": "ท่าตูม"
    },
    {
        "zip": "32180",
        "province": "สุรินทร์",
        "district": "จอมพระ"
    },
    {
        "zip": "32140",
        "province": "สุรินทร์",
        "district": "ปราสาท"
    },
    {
        "zip": "32210",
        "province": "สุรินทร์",
        "district": "กาบเชิง"
    },
    {
        "zip": "32130",
        "province": "สุรินทร์",
        "district": "รัตนบุรี"
    },
    {
        "zip": "32160",
        "province": "สุรินทร์",
        "district": "สนม"
    },
    {
        "zip": "32110",
        "province": "สุรินทร์",
        "district": "ศีขรภูมิ"
    },
    {
        "zip": "32150",
        "province": "สุรินทร์",
        "district": "สังขะ"
    },
    {
        "zip": "32220",
        "province": "สุรินทร์",
        "district": "ลำดวน"
    },
    {
        "zip": "32170",
        "province": "สุรินทร์",
        "district": "สำโรงทาบ"
    },
    {
        "zip": "32230",
        "province": "สุรินทร์",
        "district": "บัวเชด"
    },
    {
        "zip": "32140",
        "province": "สุรินทร์",
        "district": "พนมดงรัก"
    },
    {
        "zip": "32150",
        "province": "สุรินทร์",
        "district": "ศรีณรงค์"
    },
    {
        "zip": "32000",
        "province": "สุรินทร์",
        "district": "เขวาสินรินทร์"
    },
    {
        "zip": "32130",
        "province": "สุรินทร์",
        "district": "โนนนารายณ์"
    },
    {
        "zip": "33000",
        "province": "ศรีสะเกษ",
        "district": "เมืองศรีสะเกษ"
    },
    {
        "zip": "33190",
        "province": "ศรีสะเกษ",
        "district": "ยางชุมน้อย"
    },
    {
        "zip": "33130",
        "province": "ศรีสะเกษ",
        "district": "กันทรารมย์"
    },
    {
        "zip": "33110",
        "province": "ศรีสะเกษ",
        "district": "กันทรลักษ์"
    },
    {
        "zip": "33140",
        "province": "ศรีสะเกษ",
        "district": "ขุขันธ์"
    },
    {
        "zip": "33180",
        "province": "ศรีสะเกษ",
        "district": "ไพรบึง"
    },
    {
        "zip": "33170",
        "province": "ศรีสะเกษ",
        "district": "ปรางค์กู่"
    },
    {
        "zip": "33150",
        "province": "ศรีสะเกษ",
        "district": "ขุนหาญ"
    },
    {
        "zip": "33160",
        "province": "ศรีสะเกษ",
        "district": "ราษีไศล"
    },
    {
        "zip": "33120",
        "province": "ศรีสะเกษ",
        "district": "อุทุมพรพิสัย"
    },
    {
        "zip": "33220",
        "province": "ศรีสะเกษ",
        "district": "บึงบูรพ์"
    },
    {
        "zip": "33210",
        "province": "ศรีสะเกษ",
        "district": "ห้วยทับทัน"
    },
    {
        "zip": "33250",
        "province": "ศรีสะเกษ",
        "district": "โนนคูณ"
    },
    {
        "zip": "33240",
        "province": "ศรีสะเกษ",
        "district": "ศรีรัตนะ"
    },
    {
        "zip": "33130",
        "province": "ศรีสะเกษ",
        "district": "น้ำเกลี้ยง"
    },
    {
        "zip": "33270",
        "province": "ศรีสะเกษ",
        "district": "วังหิน"
    },
    {
        "zip": "33140",
        "province": "ศรีสะเกษ",
        "district": "ภูสิงห์"
    },
    {
        "zip": "33120",
        "province": "ศรีสะเกษ",
        "district": "เมืองจันทร์"
    },
    {
        "zip": "33110",
        "province": "ศรีสะเกษ",
        "district": "เบญจลักษ์"
    },
    {
        "zip": "33230",
        "province": "ศรีสะเกษ",
        "district": "พยุห์"
    },
    {
        "zip": "33120",
        "province": "ศรีสะเกษ",
        "district": "โพธิ์ศรีสุวรรณ"
    },
    {
        "zip": "33160",
        "province": "ศรีสะเกษ",
        "district": "ศิลาลาด"
    },
    {
        "zip": "34000",
        "province": "อุบลราชธานี",
        "district": "เมืองอุบลราชธานี"
    },
    {
        "zip": "34250",
        "province": "อุบลราชธานี",
        "district": "ศรีเมืองใหม่"
    },
    {
        "zip": "34220",
        "province": "อุบลราชธานี",
        "district": "โขงเจียม"
    },
    {
        "zip": "34150",
        "province": "อุบลราชธานี",
        "district": "เขื่องใน"
    },
    {
        "zip": "34320",
        "province": "อุบลราชธานี",
        "district": "เขื่องใน"
    },
    {
        "zip": "34170",
        "province": "อุบลราชธานี",
        "district": "เขมราฐ"
    },
    {
        "zip": "34160",
        "province": "อุบลราชธานี",
        "district": "เดชอุดม"
    },
    {
        "zip": "34280",
        "province": "อุบลราชธานี",
        "district": "นาจะหลวย"
    },
    {
        "zip": "34260",
        "province": "อุบลราชธานี",
        "district": "น้ำยืน"
    },
    {
        "zip": "34230",
        "province": "อุบลราชธานี",
        "district": "บุณฑริก"
    },
    {
        "zip": "34130",
        "province": "อุบลราชธานี",
        "district": "ตระการพืชผล"
    },
    {
        "zip": "34270",
        "province": "อุบลราชธานี",
        "district": "กุดข้าวปุ้น"
    },
    {
        "zip": "34140",
        "province": "อุบลราชธานี",
        "district": "ม่วงสามสิบ"
    },
    {
        "zip": "34190",
        "province": "อุบลราชธานี",
        "district": "วารินชำราบ"
    },
    {
        "zip": "34310",
        "province": "อุบลราชธานี",
        "district": "วารินชำราบ"
    },
    {
        "zip": "34110",
        "province": "อุบลราชธานี",
        "district": "พิบูลมังสาหาร"
    },
    {
        "zip": "34330",
        "province": "อุบลราชธานี",
        "district": "ตาลสุม"
    },
    {
        "zip": "34340",
        "province": "อุบลราชธานี",
        "district": "โพธิ์ไทร"
    },
    {
        "zip": "34360",
        "province": "อุบลราชธานี",
        "district": "สำโรง"
    },
    {
        "zip": "34000",
        "province": "อุบลราชธานี",
        "district": "ดอนมดแดง"
    },
    {
        "zip": "34350",
        "province": "อุบลราชธานี",
        "district": "สิรินธร"
    },
    {
        "zip": "34160",
        "province": "อุบลราชธานี",
        "district": "ทุ่งศรีอุดม"
    },
    {
        "zip": "34160",
        "province": "อุบลราชธานี",
        "district": "นาเยีย"
    },
    {
        "zip": "34170",
        "province": "อุบลราชธานี",
        "district": "นาตาล"
    },
    {
        "zip": "34000",
        "province": "อุบลราชธานี",
        "district": "เหล่าเสือโก้ก"
    },
    {
        "zip": "34190",
        "province": "อุบลราชธานี",
        "district": "สว่างวีระวงศ์"
    },
    {
        "zip": "34260",
        "province": "อุบลราชธานี",
        "district": "น้ำขุ่น"
    },
    {
        "zip": "35000",
        "province": "ยโสธร",
        "district": "เมืองยโสธร"
    },
    {
        "zip": "35170",
        "province": "ยโสธร",
        "district": "ทรายมูล"
    },
    {
        "zip": "35140",
        "province": "ยโสธร",
        "district": "กุดชุม"
    },
    {
        "zip": "35110",
        "province": "ยโสธร",
        "district": "คำเขื่อนแก้ว"
    },
    {
        "zip": "35180",
        "province": "ยโสธร",
        "district": "คำเขื่อนแก้ว"
    },
    {
        "zip": "35150",
        "province": "ยโสธร",
        "district": "ป่าติ้ว"
    },
    {
        "zip": "35130",
        "province": "ยโสธร",
        "district": "มหาชนะชัย"
    },
    {
        "zip": "35160",
        "province": "ยโสธร",
        "district": "ค้อวัง"
    },
    {
        "zip": "35120",
        "province": "ยโสธร",
        "district": "เลิงนกทา"
    },
    {
        "zip": "35120",
        "province": "ยโสธร",
        "district": "ไทยเจริญ"
    },
    {
        "zip": "36000",
        "province": "ชัยภูมิ",
        "district": "เมืองชัยภูมิ"
    },
    {
        "zip": "36240",
        "province": "ชัยภูมิ",
        "district": "เมืองชัยภูมิ"
    },
    {
        "zip": "36170",
        "province": "ชัยภูมิ",
        "district": "บ้านเขว้า"
    },
    {
        "zip": "36140",
        "province": "ชัยภูมิ",
        "district": "คอนสวรรค์"
    },
    {
        "zip": "36120",
        "province": "ชัยภูมิ",
        "district": "เกษตรสมบูรณ์"
    },
    {
        "zip": "36210",
        "province": "ชัยภูมิ",
        "district": "หนองบัวแดง"
    },
    {
        "zip": "36130",
        "province": "ชัยภูมิ",
        "district": "จัตุรัส"
    },
    {
        "zip": "36220",
        "province": "ชัยภูมิ",
        "district": "จัตุรัส"
    },
    {
        "zip": "36160",
        "province": "ชัยภูมิ",
        "district": "บำเหน็จณรงค์"
    },
    {
        "zip": "36220",
        "province": "ชัยภูมิ",
        "district": "บำเหน็จณรงค์"
    },
    {
        "zip": "36250",
        "province": "ชัยภูมิ",
        "district": "หนองบัวระเหว"
    },
    {
        "zip": "36230",
        "province": "ชัยภูมิ",
        "district": "เทพสถิต"
    },
    {
        "zip": "36110",
        "province": "ชัยภูมิ",
        "district": "ภูเขียว"
    },
    {
        "zip": "36190",
        "province": "ชัยภูมิ",
        "district": "บ้านแท่น"
    },
    {
        "zip": "36150",
        "province": "ชัยภูมิ",
        "district": "แก้งคร้อ"
    },
    {
        "zip": "36180",
        "province": "ชัยภูมิ",
        "district": "คอนสาร"
    },
    {
        "zip": "36260",
        "province": "ชัยภูมิ",
        "district": "ภักดีชุมพล"
    },
    {
        "zip": "36130",
        "province": "ชัยภูมิ",
        "district": "เนินสง่า"
    },
    {
        "zip": "36130",
        "province": "ชัยภูมิ",
        "district": "ซับใหญ่"
    },
    {
        "zip": "37000",
        "province": "อำนาจเจริญ",
        "district": "เมืองอำนาจเจริญ"
    },
    {
        "zip": "37210",
        "province": "อำนาจเจริญ",
        "district": "ชานุมาน"
    },
    {
        "zip": "37110",
        "province": "อำนาจเจริญ",
        "district": "ปทุมราชวงศา"
    },
    {
        "zip": "37180",
        "province": "อำนาจเจริญ",
        "district": "พนา"
    },
    {
        "zip": "37290",
        "province": "อำนาจเจริญ",
        "district": "เสนางคนิคม"
    },
    {
        "zip": "37240",
        "province": "อำนาจเจริญ",
        "district": "หัวตะพาน"
    },
    {
        "zip": "37000",
        "province": "อำนาจเจริญ",
        "district": "ลืออำนาจ"
    },
    {
        "zip": "38000",
        "province": "บึงกาฬ",
        "district": "เมืองบึงกาฬ"
    },
    {
        "zip": "38180",
        "province": "บึงกาฬ",
        "district": "พรเจริญ"
    },
    {
        "zip": "38170",
        "province": "บึงกาฬ",
        "district": "โซ่พิสัย"
    },
    {
        "zip": "38150",
        "province": "บึงกาฬ",
        "district": "เซกา"
    },
    {
        "zip": "38190",
        "province": "บึงกาฬ",
        "district": "ปากคาด"
    },
    {
        "zip": "38220",
        "province": "บึงกาฬ",
        "district": "บึงโขงหลง"
    },
    {
        "zip": "38210",
        "province": "บึงกาฬ",
        "district": "ศรีวิไล"
    },
    {
        "zip": "38000",
        "province": "บึงกาฬ",
        "district": "บุ่งคล้า"
    },
    {
        "zip": "39000",
        "province": "หนองบัวลำภู",
        "district": "เมืองหนองบัวลำภู"
    },
    {
        "zip": "39170",
        "province": "หนองบัวลำภู",
        "district": "นากลาง"
    },
    {
        "zip": "39350",
        "province": "หนองบัวลำภู",
        "district": "นากลาง"
    },
    {
        "zip": "39140",
        "province": "หนองบัวลำภู",
        "district": "โนนสัง"
    },
    {
        "zip": "39180",
        "province": "หนองบัวลำภู",
        "district": "ศรีบุญเรือง"
    },
    {
        "zip": "39270",
        "province": "หนองบัวลำภู",
        "district": "สุวรรณคูหา"
    },
    {
        "zip": "39170",
        "province": "หนองบัวลำภู",
        "district": "นาวัง"
    },
    {
        "zip": "40000",
        "province": "ขอนแก่น",
        "district": "เมืองขอนแก่น"
    },
    {
        "zip": "40260",
        "province": "ขอนแก่น",
        "district": "เมืองขอนแก่น"
    },
    {
        "zip": "40270",
        "province": "ขอนแก่น",
        "district": "บ้านฝาง"
    },
    {
        "zip": "40320",
        "province": "ขอนแก่น",
        "district": "พระยืน"
    },
    {
        "zip": "40210",
        "province": "ขอนแก่น",
        "district": "หนองเรือ"
    },
    {
        "zip": "40240",
        "province": "ขอนแก่น",
        "district": "หนองเรือ"
    },
    {
        "zip": "40130",
        "province": "ขอนแก่น",
        "district": "ชุมแพ"
    },
    {
        "zip": "40290",
        "province": "ขอนแก่น",
        "district": "ชุมแพ"
    },
    {
        "zip": "40220",
        "province": "ขอนแก่น",
        "district": "สีชมพู"
    },
    {
        "zip": "40140",
        "province": "ขอนแก่น",
        "district": "น้ำพอง"
    },
    {
        "zip": "40310",
        "province": "ขอนแก่น",
        "district": "น้ำพอง"
    },
    {
        "zip": "40250",
        "province": "ขอนแก่น",
        "district": "อุบลรัตน์"
    },
    {
        "zip": "40170",
        "province": "ขอนแก่น",
        "district": "กระนวน"
    },
    {
        "zip": "40110",
        "province": "ขอนแก่น",
        "district": "บ้านไผ่"
    },
    {
        "zip": "40340",
        "province": "ขอนแก่น",
        "district": "เปือยน้อย"
    },
    {
        "zip": "40120",
        "province": "ขอนแก่น",
        "district": "พล"
    },
    {
        "zip": "40330",
        "province": "ขอนแก่น",
        "district": "แวงใหญ่"
    },
    {
        "zip": "40230",
        "province": "ขอนแก่น",
        "district": "แวงน้อย"
    },
    {
        "zip": "40190",
        "province": "ขอนแก่น",
        "district": "หนองสองห้อง"
    },
    {
        "zip": "40150",
        "province": "ขอนแก่น",
        "district": "ภูเวียง"
    },
    {
        "zip": "40160",
        "province": "ขอนแก่น",
        "district": "มัญจาคีรี"
    },
    {
        "zip": "40180",
        "province": "ขอนแก่น",
        "district": "ชนบท"
    },
    {
        "zip": "40280",
        "province": "ขอนแก่น",
        "district": "เขาสวนกวาง"
    },
    {
        "zip": "40350",
        "province": "ขอนแก่น",
        "district": "ภูผาม่าน"
    },
    {
        "zip": "40170",
        "province": "ขอนแก่น",
        "district": "ซำสูง"
    },
    {
        "zip": "40160",
        "province": "ขอนแก่น",
        "district": "โคกโพธิ์ไชย"
    },
    {
        "zip": "40150",
        "province": "ขอนแก่น",
        "district": "หนองนาคำ"
    },
    {
        "zip": "40110",
        "province": "ขอนแก่น",
        "district": "บ้านแฮด"
    },
    {
        "zip": "40110",
        "province": "ขอนแก่น",
        "district": "โนนศิลา"
    },
    {
        "zip": "40150",
        "province": "ขอนแก่น",
        "district": "เวียงเก่า"
    },
    {
        "zip": "41000",
        "province": "อุดรธานี",
        "district": "เมืองอุดรธานี"
    },
    {
        "zip": "41330",
        "province": "อุดรธานี",
        "district": "เมืองอุดรธานี"
    },
    {
        "zip": "41250",
        "province": "อุดรธานี",
        "district": "กุดจับ"
    },
    {
        "zip": "41360",
        "province": "อุดรธานี",
        "district": "หนองวัวซอ"
    },
    {
        "zip": "41220",
        "province": "อุดรธานี",
        "district": "หนองวัวซอ"
    },
    {
        "zip": "41110",
        "province": "อุดรธานี",
        "district": "กุมภวาปี"
    },
    {
        "zip": "41370",
        "province": "อุดรธานี",
        "district": "กุมภวาปี"
    },
    {
        "zip": "41240",
        "province": "อุดรธานี",
        "district": "โนนสะอาด"
    },
    {
        "zip": "41130",
        "province": "อุดรธานี",
        "district": "หนองหาน"
    },
    {
        "zip": "41320",
        "province": "อุดรธานี",
        "district": "หนองหาน"
    },
    {
        "zip": "41310",
        "province": "อุดรธานี",
        "district": "ทุ่งฝน"
    },
    {
        "zip": "41290",
        "province": "อุดรธานี",
        "district": "ไชยวาน"
    },
    {
        "zip": "41230",
        "province": "อุดรธานี",
        "district": "ศรีธาตุ"
    },
    {
        "zip": "41280",
        "province": "อุดรธานี",
        "district": "วังสามหมอ"
    },
    {
        "zip": "41190",
        "province": "อุดรธานี",
        "district": "บ้านดุง"
    },
    {
        "zip": "41160",
        "province": "อุดรธานี",
        "district": "บ้านผือ"
    },
    {
        "zip": "41210",
        "province": "อุดรธานี",
        "district": "น้ำโสม"
    },
    {
        "zip": "41150",
        "province": "อุดรธานี",
        "district": "เพ็ญ"
    },
    {
        "zip": "41260",
        "province": "อุดรธานี",
        "district": "สร้างคอม"
    },
    {
        "zip": "41340",
        "province": "อุดรธานี",
        "district": "หนองแสง"
    },
    {
        "zip": "41380",
        "province": "อุดรธานี",
        "district": "นายูง"
    },
    {
        "zip": "41130",
        "province": "อุดรธานี",
        "district": "พิบูลย์รักษ์"
    },
    {
        "zip": "41130",
        "province": "อุดรธานี",
        "district": "กู่แก้ว"
    },
    {
        "zip": "41110",
        "province": "อุดรธานี",
        "district": "ประจักษ์ศิลปาคม"
    },
    {
        "zip": "42000",
        "province": "เลย",
        "district": "เมืองเลย"
    },
    {
        "zip": "42100",
        "province": "เลย",
        "district": "เมืองเลย"
    },
    {
        "zip": "42210",
        "province": "เลย",
        "district": "นาด้วง"
    },
    {
        "zip": "42110",
        "province": "เลย",
        "district": "เชียงคาน"
    },
    {
        "zip": "42150",
        "province": "เลย",
        "district": "ปากชม"
    },
    {
        "zip": "42120",
        "province": "เลย",
        "district": "ด่านซ้าย"
    },
    {
        "zip": "42170",
        "province": "เลย",
        "district": "นาแห้ว"
    },
    {
        "zip": "42160",
        "province": "เลย",
        "district": "ภูเรือ"
    },
    {
        "zip": "42140",
        "province": "เลย",
        "district": "ท่าลี่"
    },
    {
        "zip": "42130",
        "province": "เลย",
        "district": "วังสะพุง"
    },
    {
        "zip": "42180",
        "province": "เลย",
        "district": "ภูกระดึง"
    },
    {
        "zip": "42230",
        "province": "เลย",
        "district": "ภูหลวง"
    },
    {
        "zip": "42240",
        "province": "เลย",
        "district": "ผาขาว"
    },
    {
        "zip": "42220",
        "province": "เลย",
        "district": "เอราวัณ"
    },
    {
        "zip": "42190",
        "province": "เลย",
        "district": "หนองหิน"
    },
    {
        "zip": "43000",
        "province": "หนองคาย",
        "district": "เมืองหนองคาย"
    },
    {
        "zip": "43100",
        "province": "หนองคาย",
        "district": "เมืองหนองคาย"
    },
    {
        "zip": "43110",
        "province": "หนองคาย",
        "district": "ท่าบ่อ"
    },
    {
        "zip": "43120",
        "province": "หนองคาย",
        "district": "โพนพิสัย"
    },
    {
        "zip": "43130",
        "province": "หนองคาย",
        "district": "ศรีเชียงใหม่"
    },
    {
        "zip": "43160",
        "province": "หนองคาย",
        "district": "สังคม"
    },
    {
        "zip": "43100",
        "province": "หนองคาย",
        "district": "สระใคร"
    },
    {
        "zip": "43120",
        "province": "หนองคาย",
        "district": "เฝ้าไร่"
    },
    {
        "zip": "43120",
        "province": "หนองคาย",
        "district": "รัตนวาปี"
    },
    {
        "zip": "43130",
        "province": "หนองคาย",
        "district": "โพธิ์ตาก"
    },
    {
        "zip": "44000",
        "province": "มหาสารคาม",
        "district": "เมืองมหาสารคาม"
    },
    {
        "zip": "44190",
        "province": "มหาสารคาม",
        "district": "แกดำ"
    },
    {
        "zip": "44140",
        "province": "มหาสารคาม",
        "district": "โกสุมพิสัย"
    },
    {
        "zip": "44150",
        "province": "มหาสารคาม",
        "district": "กันทรวิชัย"
    },
    {
        "zip": "44160",
        "province": "มหาสารคาม",
        "district": "เชียงยืน"
    },
    {
        "zip": "44130",
        "province": "มหาสารคาม",
        "district": "บรบือ"
    },
    {
        "zip": "44170",
        "province": "มหาสารคาม",
        "district": "นาเชือก"
    },
    {
        "zip": "44110",
        "province": "มหาสารคาม",
        "district": "พยัคฆภูมิพิสัย"
    },
    {
        "zip": "44120",
        "province": "มหาสารคาม",
        "district": "วาปีปทุม"
    },
    {
        "zip": "44180",
        "province": "มหาสารคาม",
        "district": "นาดูน"
    },
    {
        "zip": "44210",
        "province": "มหาสารคาม",
        "district": "ยางสีสุราช"
    },
    {
        "zip": "44130",
        "province": "มหาสารคาม",
        "district": "กุดรัง"
    },
    {
        "zip": "44160",
        "province": "มหาสารคาม",
        "district": "ชื่นชม"
    },
    {
        "zip": "45000",
        "province": "ร้อยเอ็ด",
        "district": "เมืองร้อยเอ็ด"
    },
    {
        "zip": "45150",
        "province": "ร้อยเอ็ด",
        "district": "เกษตรวิสัย"
    },
    {
        "zip": "45190",
        "province": "ร้อยเอ็ด",
        "district": "ปทุมรัตต์"
    },
    {
        "zip": "45180",
        "province": "ร้อยเอ็ด",
        "district": "จตุรพักตรพิมาน"
    },
    {
        "zip": "45170",
        "province": "ร้อยเอ็ด",
        "district": "ธวัชบุรี"
    },
    {
        "zip": "45140",
        "province": "ร้อยเอ็ด",
        "district": "พนมไพร"
    },
    {
        "zip": "45110",
        "province": "ร้อยเอ็ด",
        "district": "โพนทอง"
    },
    {
        "zip": "45230",
        "province": "ร้อยเอ็ด",
        "district": "โพธิ์ชัย"
    },
    {
        "zip": "45210",
        "province": "ร้อยเอ็ด",
        "district": "หนองพอก"
    },
    {
        "zip": "45120",
        "province": "ร้อยเอ็ด",
        "district": "เสลภูมิ"
    },
    {
        "zip": "45130",
        "province": "ร้อยเอ็ด",
        "district": "สุวรรณภูมิ"
    },
    {
        "zip": "45220",
        "province": "ร้อยเอ็ด",
        "district": "เมืองสรวง"
    },
    {
        "zip": "45240",
        "province": "ร้อยเอ็ด",
        "district": "โพนทราย"
    },
    {
        "zip": "45160",
        "province": "ร้อยเอ็ด",
        "district": "อาจสามารถ"
    },
    {
        "zip": "45250",
        "province": "ร้อยเอ็ด",
        "district": "เมยวดี"
    },
    {
        "zip": "45000",
        "province": "ร้อยเอ็ด",
        "district": "ศรีสมเด็จ"
    },
    {
        "zip": "45280",
        "province": "ร้อยเอ็ด",
        "district": "ศรีสมเด็จ"
    },
    {
        "zip": "45000",
        "province": "ร้อยเอ็ด",
        "district": "จังหาร"
    },
    {
        "zip": "45000",
        "province": "ร้อยเอ็ด",
        "district": "เชียงขวัญ"
    },
    {
        "zip": "45170",
        "province": "ร้อยเอ็ด",
        "district": "เชียงขวัญ"
    },
    {
        "zip": "45140",
        "province": "ร้อยเอ็ด",
        "district": "หนองฮี"
    },
    {
        "zip": "45170",
        "province": "ร้อยเอ็ด",
        "district": "ทุ่งเขาหลวง"
    },
    {
        "zip": "46000",
        "province": "กาฬสินธุ์",
        "district": "เมืองกาฬสินธุ์"
    },
    {
        "zip": "46230",
        "province": "กาฬสินธุ์",
        "district": "นามน"
    },
    {
        "zip": "46130",
        "province": "กาฬสินธุ์",
        "district": "กมลาไสย"
    },
    {
        "zip": "46210",
        "province": "กาฬสินธุ์",
        "district": "ร่องคำ"
    },
    {
        "zip": "46110",
        "province": "กาฬสินธุ์",
        "district": "กุฉินารายณ์"
    },
    {
        "zip": "46160",
        "province": "กาฬสินธุ์",
        "district": "เขาวง"
    },
    {
        "zip": "46120",
        "province": "กาฬสินธุ์",
        "district": "ยางตลาด"
    },
    {
        "zip": "46170",
        "province": "กาฬสินธุ์",
        "district": "ห้วยเม็ก"
    },
    {
        "zip": "46140",
        "province": "กาฬสินธุ์",
        "district": "สหัสขันธ์"
    },
    {
        "zip": "46180",
        "province": "กาฬสินธุ์",
        "district": "คำม่วง"
    },
    {
        "zip": "46190",
        "province": "กาฬสินธุ์",
        "district": "ท่าคันโท"
    },
    {
        "zip": "46220",
        "province": "กาฬสินธุ์",
        "district": "หนองกุงศรี"
    },
    {
        "zip": "46150",
        "province": "กาฬสินธุ์",
        "district": "สมเด็จ"
    },
    {
        "zip": "46240",
        "province": "กาฬสินธุ์",
        "district": "ห้วยผึ้ง"
    },
    {
        "zip": "46180",
        "province": "กาฬสินธุ์",
        "district": "สามชัย"
    },
    {
        "zip": "46160",
        "province": "กาฬสินธุ์",
        "district": "นาคู"
    },
    {
        "zip": "46000",
        "province": "กาฬสินธุ์",
        "district": "ดอนจาน"
    },
    {
        "zip": "46130",
        "province": "กาฬสินธุ์",
        "district": "ฆ้องชัย"
    },
    {
        "zip": "47000",
        "province": "สกลนคร",
        "district": "เมืองสกลนคร"
    },
    {
        "zip": "47220",
        "province": "สกลนคร",
        "district": "เมืองสกลนคร"
    },
    {
        "zip": "47230",
        "province": "สกลนคร",
        "district": "เมืองสกลนคร"
    },
    {
        "zip": "47210",
        "province": "สกลนคร",
        "district": "กุสุมาลย์"
    },
    {
        "zip": "47230",
        "province": "สกลนคร",
        "district": "กุสุมาลย์"
    },
    {
        "zip": "47180",
        "province": "สกลนคร",
        "district": "กุดบาก"
    },
    {
        "zip": "47130",
        "province": "สกลนคร",
        "district": "พรรณานิคม"
    },
    {
        "zip": "47220",
        "province": "สกลนคร",
        "district": "พรรณานิคม"
    },
    {
        "zip": "47160",
        "province": "สกลนคร",
        "district": "พังโคน"
    },
    {
        "zip": "47150",
        "province": "สกลนคร",
        "district": "วาริชภูมิ"
    },
    {
        "zip": "47270",
        "province": "สกลนคร",
        "district": "นิคมน้ำอูน"
    },
    {
        "zip": "47120",
        "province": "สกลนคร",
        "district": "วานรนิวาส"
    },
    {
        "zip": "47250",
        "province": "สกลนคร",
        "district": "คำตากล้า"
    },
    {
        "zip": "47140",
        "province": "สกลนคร",
        "district": "บ้านม่วง"
    },
    {
        "zip": "47170",
        "province": "สกลนคร",
        "district": "อากาศอำนวย"
    },
    {
        "zip": "47110",
        "province": "สกลนคร",
        "district": "สว่างแดนดิน"
    },
    {
        "zip": "47240",
        "province": "สกลนคร",
        "district": "สว่างแดนดิน"
    },
    {
        "zip": "47190",
        "province": "สกลนคร",
        "district": "ส่องดาว"
    },
    {
        "zip": "47260",
        "province": "สกลนคร",
        "district": "เต่างอย"
    },
    {
        "zip": "47280",
        "province": "สกลนคร",
        "district": "โคกศรีสุพรรณ"
    },
    {
        "zip": "47290",
        "province": "สกลนคร",
        "district": "เจริญศิลป์"
    },
    {
        "zip": "47230",
        "province": "สกลนคร",
        "district": "โพนนาแก้ว"
    },
    {
        "zip": "47180",
        "province": "สกลนคร",
        "district": "ภูพาน"
    },
    {
        "zip": "48000",
        "province": "นครพนม",
        "district": "เมืองนครพนม"
    },
    {
        "zip": "48160",
        "province": "นครพนม",
        "district": "ปลาปาก"
    },
    {
        "zip": "48120",
        "province": "นครพนม",
        "district": "ท่าอุเทน"
    },
    {
        "zip": "48140",
        "province": "นครพนม",
        "district": "บ้านแพง"
    },
    {
        "zip": "48110",
        "province": "นครพนม",
        "district": "ธาตุพนม"
    },
    {
        "zip": "48170",
        "province": "นครพนม",
        "district": "เรณูนคร"
    },
    {
        "zip": "48130",
        "province": "นครพนม",
        "district": "นาแก"
    },
    {
        "zip": "48150",
        "province": "นครพนม",
        "district": "ศรีสงคราม"
    },
    {
        "zip": "48180",
        "province": "นครพนม",
        "district": "นาหว้า"
    },
    {
        "zip": "48190",
        "province": "นครพนม",
        "district": "โพนสวรรค์"
    },
    {
        "zip": "48140",
        "province": "นครพนม",
        "district": "นาทม"
    },
    {
        "zip": "48130",
        "province": "นครพนม",
        "district": "วังยาง"
    },
    {
        "zip": "49000",
        "province": "มุกดาหาร",
        "district": "เมืองมุกดาหาร"
    },
    {
        "zip": "49130",
        "province": "มุกดาหาร",
        "district": "นิคมคำสร้อย"
    },
    {
        "zip": "49120",
        "province": "มุกดาหาร",
        "district": "ดอนตาล"
    },
    {
        "zip": "49140",
        "province": "มุกดาหาร",
        "district": "ดงหลวง"
    },
    {
        "zip": "49110",
        "province": "มุกดาหาร",
        "district": "คำชะอี"
    },
    {
        "zip": "49150",
        "province": "มุกดาหาร",
        "district": "หว้านใหญ่"
    },
    {
        "zip": "49160",
        "province": "มุกดาหาร",
        "district": "หนองสูง"
    },
    {
        "zip": "50200",
        "province": "เชียงใหม่",
        "district": "เมืองเชียงใหม่"
    },
    {
        "zip": "50100",
        "province": "เชียงใหม่",
        "district": "เมืองเชียงใหม่"
    },
    {
        "zip": "50300",
        "province": "เชียงใหม่",
        "district": "เมืองเชียงใหม่"
    },
    {
        "zip": "50000",
        "province": "เชียงใหม่",
        "district": "เมืองเชียงใหม่"
    },
    {
        "zip": "50160",
        "province": "เชียงใหม่",
        "district": "จอมทอง"
    },
    {
        "zip": "50240",
        "province": "เชียงใหม่",
        "district": "จอมทอง"
    },
    {
        "zip": "50270",
        "province": "เชียงใหม่",
        "district": "แม่แจ่ม"
    },
    {
        "zip": "50170",
        "province": "เชียงใหม่",
        "district": "เชียงดาว"
    },
    {
        "zip": "50220",
        "province": "เชียงใหม่",
        "district": "ดอยสะเก็ด"
    },
    {
        "zip": "50150",
        "province": "เชียงใหม่",
        "district": "แม่แตง"
    },
    {
        "zip": "50330",
        "province": "เชียงใหม่",
        "district": "แม่แตง"
    },
    {
        "zip": "50180",
        "province": "เชียงใหม่",
        "district": "แม่ริม"
    },
    {
        "zip": "50330",
        "province": "เชียงใหม่",
        "district": "แม่ริม"
    },
    {
        "zip": "50250",
        "province": "เชียงใหม่",
        "district": "สะเมิง"
    },
    {
        "zip": "50110",
        "province": "เชียงใหม่",
        "district": "ฝาง"
    },
    {
        "zip": "50320",
        "province": "เชียงใหม่",
        "district": "ฝาง"
    },
    {
        "zip": "50280",
        "province": "เชียงใหม่",
        "district": "แม่อาย"
    },
    {
        "zip": "50190",
        "province": "เชียงใหม่",
        "district": "พร้าว"
    },
    {
        "zip": "50120",
        "province": "เชียงใหม่",
        "district": "สันป่าตอง"
    },
    {
        "zip": "50130",
        "province": "เชียงใหม่",
        "district": "สันกำแพง"
    },
    {
        "zip": "50210",
        "province": "เชียงใหม่",
        "district": "สันทราย"
    },
    {
        "zip": "50290",
        "province": "เชียงใหม่",
        "district": "สันทราย"
    },
    {
        "zip": "50230",
        "province": "เชียงใหม่",
        "district": "หางดง"
    },
    {
        "zip": "50340",
        "province": "เชียงใหม่",
        "district": "หางดง"
    },
    {
        "zip": "50240",
        "province": "เชียงใหม่",
        "district": "ฮอด"
    },
    {
        "zip": "50260",
        "province": "เชียงใหม่",
        "district": "ดอยเต่า"
    },
    {
        "zip": "50310",
        "province": "เชียงใหม่",
        "district": "อมก๋อย"
    },
    {
        "zip": "50140",
        "province": "เชียงใหม่",
        "district": "สารภี"
    },
    {
        "zip": "50350",
        "province": "เชียงใหม่",
        "district": "เวียงแหง"
    },
    {
        "zip": "50320",
        "province": "เชียงใหม่",
        "district": "ไชยปราการ"
    },
    {
        "zip": "50360",
        "province": "เชียงใหม่",
        "district": "แม่วาง"
    },
    {
        "zip": "50130",
        "province": "เชียงใหม่",
        "district": "แม่ออน"
    },
    {
        "zip": "50160",
        "province": "เชียงใหม่",
        "district": "ดอยหล่อ"
    },
    {
        "zip": "58130",
        "province": "เชียงใหม่",
        "district": "กัลยาณิวัฒนา"
    },
    {
        "zip": "51000",
        "province": "ลำพูน",
        "district": "เมืองลำพูน"
    },
    {
        "zip": "51150",
        "province": "ลำพูน",
        "district": "เมืองลำพูน"
    },
    {
        "zip": "51140",
        "province": "ลำพูน",
        "district": "แม่ทา"
    },
    {
        "zip": "51170",
        "province": "ลำพูน",
        "district": "แม่ทา"
    },
    {
        "zip": "51130",
        "province": "ลำพูน",
        "district": "บ้านโฮ่ง"
    },
    {
        "zip": "51110",
        "province": "ลำพูน",
        "district": "ลี้"
    },
    {
        "zip": "51160",
        "province": "ลำพูน",
        "district": "ทุ่งหัวช้าง"
    },
    {
        "zip": "51120",
        "province": "ลำพูน",
        "district": "ป่าซาง"
    },
    {
        "zip": "51180",
        "province": "ลำพูน",
        "district": "บ้านธิ"
    },
    {
        "zip": "51120",
        "province": "ลำพูน",
        "district": "เวียงหนองล่อง"
    },
    {
        "zip": "52000",
        "province": "ลำปาง",
        "district": "เมืองลำปาง"
    },
    {
        "zip": "52100",
        "province": "ลำปาง",
        "district": "เมืองลำปาง"
    },
    {
        "zip": "52220",
        "province": "ลำปาง",
        "district": "แม่เมาะ"
    },
    {
        "zip": "52130",
        "province": "ลำปาง",
        "district": "เกาะคา"
    },
    {
        "zip": "52210",
        "province": "ลำปาง",
        "district": "เสริมงาม"
    },
    {
        "zip": "52110",
        "province": "ลำปาง",
        "district": "งาว"
    },
    {
        "zip": "52120",
        "province": "ลำปาง",
        "district": "แจ้ห่ม"
    },
    {
        "zip": "52140",
        "province": "ลำปาง",
        "district": "วังเหนือ"
    },
    {
        "zip": "52160",
        "province": "ลำปาง",
        "district": "เถิน"
    },
    {
        "zip": "52230",
        "province": "ลำปาง",
        "district": "เถิน"
    },
    {
        "zip": "52180",
        "province": "ลำปาง",
        "district": "แม่พริก"
    },
    {
        "zip": "52150",
        "province": "ลำปาง",
        "district": "แม่ทะ"
    },
    {
        "zip": "52170",
        "province": "ลำปาง",
        "district": "สบปราบ"
    },
    {
        "zip": "52190",
        "province": "ลำปาง",
        "district": "ห้างฉัตร"
    },
    {
        "zip": "52240",
        "province": "ลำปาง",
        "district": "เมืองปาน"
    },
    {
        "zip": "53000",
        "province": "อุตรดิตถ์",
        "district": "เมืองอุตรดิตถ์"
    },
    {
        "zip": "53170",
        "province": "อุตรดิตถ์",
        "district": "เมืองอุตรดิตถ์"
    },
    {
        "zip": "53140",
        "province": "อุตรดิตถ์",
        "district": "ตรอน"
    },
    {
        "zip": "53150",
        "province": "อุตรดิตถ์",
        "district": "ท่าปลา"
    },
    {
        "zip": "53190",
        "province": "อุตรดิตถ์",
        "district": "ท่าปลา"
    },
    {
        "zip": "53110",
        "province": "อุตรดิตถ์",
        "district": "ท่าปลา"
    },
    {
        "zip": "53110",
        "province": "อุตรดิตถ์",
        "district": "น้ำปาด"
    },
    {
        "zip": "53160",
        "province": "อุตรดิตถ์",
        "district": "ฟากท่า"
    },
    {
        "zip": "53180",
        "province": "อุตรดิตถ์",
        "district": "บ้านโคก"
    },
    {
        "zip": "53120",
        "province": "อุตรดิตถ์",
        "district": "พิชัย"
    },
    {
        "zip": "53220",
        "province": "อุตรดิตถ์",
        "district": "พิชัย"
    },
    {
        "zip": "53130",
        "province": "อุตรดิตถ์",
        "district": "ลับแล"
    },
    {
        "zip": "53210",
        "province": "อุตรดิตถ์",
        "district": "ลับแล"
    },
    {
        "zip": "53230",
        "province": "อุตรดิตถ์",
        "district": "ทองแสนขัน"
    },
    {
        "zip": "54000",
        "province": "แพร่",
        "district": "เมืองแพร่"
    },
    {
        "zip": "54140",
        "province": "แพร่",
        "district": "ร้องกวาง"
    },
    {
        "zip": "54150",
        "province": "แพร่",
        "district": "ลอง"
    },
    {
        "zip": "54130",
        "province": "แพร่",
        "district": "สูงเม่น"
    },
    {
        "zip": "54000",
        "province": "แพร่",
        "district": "สูงเม่น"
    },
    {
        "zip": "54110",
        "province": "แพร่",
        "district": "เด่นชัย"
    },
    {
        "zip": "54120",
        "province": "แพร่",
        "district": "สอง"
    },
    {
        "zip": "54160",
        "province": "แพร่",
        "district": "วังชิ้น"
    },
    {
        "zip": "54170",
        "province": "แพร่",
        "district": "หนองม่วงไข่"
    },
    {
        "zip": "55000",
        "province": "น่าน",
        "district": "เมืองน่าน"
    },
    {
        "zip": "55170",
        "province": "น่าน",
        "district": "แม่จริม"
    },
    {
        "zip": "55190",
        "province": "น่าน",
        "district": "บ้านหลวง"
    },
    {
        "zip": "55150",
        "province": "น่าน",
        "district": "นาน้อย"
    },
    {
        "zip": "55120",
        "province": "น่าน",
        "district": "ปัว"
    },
    {
        "zip": "55140",
        "province": "น่าน",
        "district": "ท่าวังผา"
    },
    {
        "zip": "55110",
        "province": "น่าน",
        "district": "เวียงสา"
    },
    {
        "zip": "55130",
        "province": "น่าน",
        "district": "ทุ่งช้าง"
    },
    {
        "zip": "55160",
        "province": "น่าน",
        "district": "เชียงกลาง"
    },
    {
        "zip": "55180",
        "province": "น่าน",
        "district": "นาหมื่น"
    },
    {
        "zip": "55210",
        "province": "น่าน",
        "district": "สันติสุข"
    },
    {
        "zip": "55220",
        "province": "น่าน",
        "district": "บ่อเกลือ"
    },
    {
        "zip": "55160",
        "province": "น่าน",
        "district": "สองแคว"
    },
    {
        "zip": "55000",
        "province": "น่าน",
        "district": "ภูเพียง"
    },
    {
        "zip": "55130",
        "province": "น่าน",
        "district": "เฉลิมพระเกียรติ"
    },
    {
        "zip": "56000",
        "province": "พะเยา",
        "district": "เมืองพะเยา"
    },
    {
        "zip": "56150",
        "province": "พะเยา",
        "district": "จุน"
    },
    {
        "zip": "56110",
        "province": "พะเยา",
        "district": "เชียงคำ"
    },
    {
        "zip": "56160",
        "province": "พะเยา",
        "district": "เชียงม่วน"
    },
    {
        "zip": "56120",
        "province": "พะเยา",
        "district": "ดอกคำใต้"
    },
    {
        "zip": "56140",
        "province": "พะเยา",
        "district": "ปง"
    },
    {
        "zip": "56130",
        "province": "พะเยา",
        "district": "แม่ใจ"
    },
    {
        "zip": "56110",
        "province": "พะเยา",
        "district": "ภูซาง"
    },
    {
        "zip": "56000",
        "province": "พะเยา",
        "district": "ภูกามยาว"
    },
    {
        "zip": "57000",
        "province": "เชียงราย",
        "district": "เมืองเชียงราย"
    },
    {
        "zip": "57100",
        "province": "เชียงราย",
        "district": "เมืองเชียงราย"
    },
    {
        "zip": "57210",
        "province": "เชียงราย",
        "district": "เวียงชัย"
    },
    {
        "zip": "57140",
        "province": "เชียงราย",
        "district": "เชียงของ"
    },
    {
        "zip": "57160",
        "province": "เชียงราย",
        "district": "เทิง"
    },
    {
        "zip": "57230",
        "province": "เชียงราย",
        "district": "เทิง"
    },
    {
        "zip": "57120",
        "province": "เชียงราย",
        "district": "พาน"
    },
    {
        "zip": "57250",
        "province": "เชียงราย",
        "district": "พาน"
    },
    {
        "zip": "57280",
        "province": "เชียงราย",
        "district": "พาน"
    },
    {
        "zip": "57190",
        "province": "เชียงราย",
        "district": "ป่าแดด"
    },
    {
        "zip": "57110",
        "province": "เชียงราย",
        "district": "แม่จัน"
    },
    {
        "zip": "57270",
        "province": "เชียงราย",
        "district": "แม่จัน"
    },
    {
        "zip": "57240",
        "province": "เชียงราย",
        "district": "แม่จัน"
    },
    {
        "zip": "57150",
        "province": "เชียงราย",
        "district": "เชียงแสน"
    },
    {
        "zip": "57130",
        "province": "เชียงราย",
        "district": "แม่สาย"
    },
    {
        "zip": "57220",
        "province": "เชียงราย",
        "district": "แม่สาย"
    },
    {
        "zip": "57180",
        "province": "เชียงราย",
        "district": "แม่สรวย"
    },
    {
        "zip": "57170",
        "province": "เชียงราย",
        "district": "เวียงป่าเป้า"
    },
    {
        "zip": "57260",
        "province": "เชียงราย",
        "district": "เวียงป่าเป้า"
    },
    {
        "zip": "57290",
        "province": "เชียงราย",
        "district": "พญาเม็งราย"
    },
    {
        "zip": "57310",
        "province": "เชียงราย",
        "district": "เวียงแก่น"
    },
    {
        "zip": "57340",
        "province": "เชียงราย",
        "district": "ขุนตาล"
    },
    {
        "zip": "57240",
        "province": "เชียงราย",
        "district": "แม่ฟ้าหลวง"
    },
    {
        "zip": "57110",
        "province": "เชียงราย",
        "district": "แม่ฟ้าหลวง"
    },
    {
        "zip": "57250",
        "province": "เชียงราย",
        "district": "แม่ลาว"
    },
    {
        "zip": "57000",
        "province": "เชียงราย",
        "district": "แม่ลาว"
    },
    {
        "zip": "57210",
        "province": "เชียงราย",
        "district": "เวียงเชียงรุ้ง"
    },
    {
        "zip": "57110",
        "province": "เชียงราย",
        "district": "ดอยหลวง"
    },
    {
        "zip": "58000",
        "province": "แม่ฮ่องสอน",
        "district": "เมืองแม่ฮ่องสอน"
    },
    {
        "zip": "58140",
        "province": "แม่ฮ่องสอน",
        "district": "ขุนยวม"
    },
    {
        "zip": "58130",
        "province": "แม่ฮ่องสอน",
        "district": "ปาย"
    },
    {
        "zip": "58110",
        "province": "แม่ฮ่องสอน",
        "district": "แม่สะเรียง"
    },
    {
        "zip": "58120",
        "province": "แม่ฮ่องสอน",
        "district": "แม่ลาน้อย"
    },
    {
        "zip": "58110",
        "province": "แม่ฮ่องสอน",
        "district": "สบเมย"
    },
    {
        "zip": "58150",
        "province": "แม่ฮ่องสอน",
        "district": "ปางมะผ้า"
    },
    {
        "zip": "60000",
        "province": "นครสวรรค์",
        "district": "เมืองนครสวรรค์"
    },
    {
        "zip": "60240",
        "province": "นครสวรรค์",
        "district": "เมืองนครสวรรค์"
    },
    {
        "zip": "60170",
        "province": "นครสวรรค์",
        "district": "โกรกพระ"
    },
    {
        "zip": "60120",
        "province": "นครสวรรค์",
        "district": "ชุมแสง"
    },
    {
        "zip": "60250",
        "province": "นครสวรรค์",
        "district": "ชุมแสง"
    },
    {
        "zip": "60110",
        "province": "นครสวรรค์",
        "district": "หนองบัว"
    },
    {
        "zip": "60180",
        "province": "นครสวรรค์",
        "district": "บรรพตพิสัย"
    },
    {
        "zip": "60230",
        "province": "นครสวรรค์",
        "district": "เก้าเลี้ยว"
    },
    {
        "zip": "60140",
        "province": "นครสวรรค์",
        "district": "ตาคลี"
    },
    {
        "zip": "60210",
        "province": "นครสวรรค์",
        "district": "ตาคลี"
    },
    {
        "zip": "60260",
        "province": "นครสวรรค์",
        "district": "ตาคลี"
    },
    {
        "zip": "60160",
        "province": "นครสวรรค์",
        "district": "ท่าตะโก"
    },
    {
        "zip": "60220",
        "province": "นครสวรรค์",
        "district": "ไพศาลี"
    },
    {
        "zip": "60130",
        "province": "นครสวรรค์",
        "district": "พยุหะคีรี"
    },
    {
        "zip": "60150",
        "province": "นครสวรรค์",
        "district": "ลาดยาว"
    },
    {
        "zip": "60190",
        "province": "นครสวรรค์",
        "district": "ตากฟ้า"
    },
    {
        "zip": "60150",
        "province": "นครสวรรค์",
        "district": "แม่วงก์"
    },
    {
        "zip": "60150",
        "province": "นครสวรรค์",
        "district": "แม่เปิน"
    },
    {
        "zip": "60150",
        "province": "นครสวรรค์",
        "district": "ชุมตาบง"
    },
    {
        "zip": "61000",
        "province": "อุทัยธานี",
        "district": "เมืองอุทัยธานี"
    },
    {
        "zip": "61120",
        "province": "อุทัยธานี",
        "district": "ทัพทัน"
    },
    {
        "zip": "61150",
        "province": "อุทัยธานี",
        "district": "สว่างอารมณ์"
    },
    {
        "zip": "61110",
        "province": "อุทัยธานี",
        "district": "หนองฉาง"
    },
    {
        "zip": "61170",
        "province": "อุทัยธานี",
        "district": "หนองฉาง"
    },
    {
        "zip": "61130",
        "province": "อุทัยธานี",
        "district": "หนองขาหย่าง"
    },
    {
        "zip": "61140",
        "province": "อุทัยธานี",
        "district": "บ้านไร่"
    },
    {
        "zip": "61180",
        "province": "อุทัยธานี",
        "district": "บ้านไร่"
    },
    {
        "zip": "61160",
        "province": "อุทัยธานี",
        "district": "ลานสัก"
    },
    {
        "zip": "61170",
        "province": "อุทัยธานี",
        "district": "ห้วยคต"
    },
    {
        "zip": "62000",
        "province": "กำแพงเพชร",
        "district": "เมืองกำแพงเพชร"
    },
    {
        "zip": "62160",
        "province": "กำแพงเพชร",
        "district": "เมืองกำแพงเพชร"
    },
    {
        "zip": "62150",
        "province": "กำแพงเพชร",
        "district": "ไทรงาม"
    },
    {
        "zip": "62180",
        "province": "กำแพงเพชร",
        "district": "คลองลาน"
    },
    {
        "zip": "62130",
        "province": "กำแพงเพชร",
        "district": "ขาณุวรลักษบุรี"
    },
    {
        "zip": "62140",
        "province": "กำแพงเพชร",
        "district": "ขาณุวรลักษบุรี"
    },
    {
        "zip": "62120",
        "province": "กำแพงเพชร",
        "district": "คลองขลุง"
    },
    {
        "zip": "62110",
        "province": "กำแพงเพชร",
        "district": "พรานกระต่าย"
    },
    {
        "zip": "62170",
        "province": "กำแพงเพชร",
        "district": "ลานกระบือ"
    },
    {
        "zip": "62190",
        "province": "กำแพงเพชร",
        "district": "ทรายทองวัฒนา"
    },
    {
        "zip": "62120",
        "province": "กำแพงเพชร",
        "district": "ปางศิลาทอง"
    },
    {
        "zip": "62210",
        "province": "กำแพงเพชร",
        "district": "บึงสามัคคี"
    },
    {
        "zip": "62000",
        "province": "กำแพงเพชร",
        "district": "โกสัมพีนคร"
    },
    {
        "zip": "63000",
        "province": "ตาก",
        "district": "เมืองตาก"
    },
    {
        "zip": "63120",
        "province": "ตาก",
        "district": "บ้านตาก"
    },
    {
        "zip": "63130",
        "province": "ตาก",
        "district": "สามเงา"
    },
    {
        "zip": "63140",
        "province": "ตาก",
        "district": "แม่ระมาด"
    },
    {
        "zip": "63150",
        "province": "ตาก",
        "district": "ท่าสองยาง"
    },
    {
        "zip": "63110",
        "province": "ตาก",
        "district": "แม่สอด"
    },
    {
        "zip": "63160",
        "province": "ตาก",
        "district": "พบพระ"
    },
    {
        "zip": "63170",
        "province": "ตาก",
        "district": "อุ้มผาง"
    },
    {
        "zip": "63000",
        "province": "ตาก",
        "district": "วังเจ้า"
    },
    {
        "zip": "64000",
        "province": "สุโขทัย",
        "district": "เมืองสุโขทัย"
    },
    {
        "zip": "64220",
        "province": "สุโขทัย",
        "district": "เมืองสุโขทัย"
    },
    {
        "zip": "64210",
        "province": "สุโขทัย",
        "district": "เมืองสุโขทัย"
    },
    {
        "zip": "64140",
        "province": "สุโขทัย",
        "district": "บ้านด่านลานหอย"
    },
    {
        "zip": "64160",
        "province": "สุโขทัย",
        "district": "คีรีมาศ"
    },
    {
        "zip": "64170",
        "province": "สุโขทัย",
        "district": "กงไกรลาศ"
    },
    {
        "zip": "64130",
        "province": "สุโขทัย",
        "district": "ศรีสัชนาลัย"
    },
    {
        "zip": "64190",
        "province": "สุโขทัย",
        "district": "ศรีสัชนาลัย"
    },
    {
        "zip": "64120",
        "province": "สุโขทัย",
        "district": "ศรีสำโรง"
    },
    {
        "zip": "64110",
        "province": "สุโขทัย",
        "district": "สวรรคโลก"
    },
    {
        "zip": "64180",
        "province": "สุโขทัย",
        "district": "ศรีนคร"
    },
    {
        "zip": "64230",
        "province": "สุโขทัย",
        "district": "ทุ่งเสลี่ยม"
    },
    {
        "zip": "64150",
        "province": "สุโขทัย",
        "district": "ทุ่งเสลี่ยม"
    },
    {
        "zip": "65000",
        "province": "พิษณุโลก",
        "district": "เมืองพิษณุโลก"
    },
    {
        "zip": "65230",
        "province": "พิษณุโลก",
        "district": "เมืองพิษณุโลก"
    },
    {
        "zip": "65120",
        "province": "พิษณุโลก",
        "district": "นครไทย"
    },
    {
        "zip": "65170",
        "province": "พิษณุโลก",
        "district": "ชาติตระการ"
    },
    {
        "zip": "65140",
        "province": "พิษณุโลก",
        "district": "บางระกำ"
    },
    {
        "zip": "65240",
        "province": "พิษณุโลก",
        "district": "บางระกำ"
    },
    {
        "zip": "65110",
        "province": "พิษณุโลก",
        "district": "บางกระทุ่ม"
    },
    {
        "zip": "65210",
        "province": "พิษณุโลก",
        "district": "บางกระทุ่ม"
    },
    {
        "zip": "65150",
        "province": "พิษณุโลก",
        "district": "พรหมพิราม"
    },
    {
        "zip": "65180",
        "province": "พิษณุโลก",
        "district": "พรหมพิราม"
    },
    {
        "zip": "65160",
        "province": "พิษณุโลก",
        "district": "วัดโบสถ์"
    },
    {
        "zip": "65130",
        "province": "พิษณุโลก",
        "district": "วังทอง"
    },
    {
        "zip": "65220",
        "province": "พิษณุโลก",
        "district": "วังทอง"
    },
    {
        "zip": "65190",
        "province": "พิษณุโลก",
        "district": "เนินมะปราง"
    },
    {
        "zip": "66000",
        "province": "พิจิตร",
        "district": "เมืองพิจิตร"
    },
    {
        "zip": "66170",
        "province": "พิจิตร",
        "district": "เมืองพิจิตร"
    },
    {
        "zip": "66180",
        "province": "พิจิตร",
        "district": "วังทรายพูน"
    },
    {
        "zip": "66190",
        "province": "พิจิตร",
        "district": "โพธิ์ประทับช้าง"
    },
    {
        "zip": "66110",
        "province": "พิจิตร",
        "district": "ตะพานหิน"
    },
    {
        "zip": "66150",
        "province": "พิจิตร",
        "district": "ตะพานหิน"
    },
    {
        "zip": "66120",
        "province": "พิจิตร",
        "district": "บางมูลนาก"
    },
    {
        "zip": "66210",
        "province": "พิจิตร",
        "district": "บางมูลนาก"
    },
    {
        "zip": "66130",
        "province": "พิจิตร",
        "district": "โพทะเล"
    },
    {
        "zip": "66140",
        "province": "พิจิตร",
        "district": "สามง่าม"
    },
    {
        "zip": "66220",
        "province": "พิจิตร",
        "district": "สามง่าม"
    },
    {
        "zip": "66150",
        "province": "พิจิตร",
        "district": "ทับคล้อ"
    },
    {
        "zip": "66230",
        "province": "พิจิตร",
        "district": "ทับคล้อ"
    },
    {
        "zip": "66160",
        "province": "พิจิตร",
        "district": "สากเหล็ก"
    },
    {
        "zip": "66130",
        "province": "พิจิตร",
        "district": "บึงนาราง"
    },
    {
        "zip": "66210",
        "province": "พิจิตร",
        "district": "ดงเจริญ"
    },
    {
        "zip": "66140",
        "province": "พิจิตร",
        "district": "วชิรบารมี"
    },
    {
        "zip": "66220",
        "province": "พิจิตร",
        "district": "วชิรบารมี"
    },
    {
        "zip": "67000",
        "province": "เพชรบูรณ์",
        "district": "เมืองเพชรบูรณ์"
    },
    {
        "zip": "67250",
        "province": "เพชรบูรณ์",
        "district": "เมืองเพชรบูรณ์"
    },
    {
        "zip": "67210",
        "province": "เพชรบูรณ์",
        "district": "เมืองเพชรบูรณ์"
    },
    {
        "zip": "67150",
        "province": "เพชรบูรณ์",
        "district": "ชนแดน"
    },
    {
        "zip": "67190",
        "province": "เพชรบูรณ์",
        "district": "ชนแดน"
    },
    {
        "zip": "67110",
        "province": "เพชรบูรณ์",
        "district": "หล่มสัก"
    },
    {
        "zip": "67120",
        "province": "เพชรบูรณ์",
        "district": "หล่มเก่า"
    },
    {
        "zip": "67130",
        "province": "เพชรบูรณ์",
        "district": "วิเชียรบุรี"
    },
    {
        "zip": "67180",
        "province": "เพชรบูรณ์",
        "district": "วิเชียรบุรี"
    },
    {
        "zip": "67170",
        "province": "เพชรบูรณ์",
        "district": "ศรีเทพ"
    },
    {
        "zip": "67140",
        "province": "เพชรบูรณ์",
        "district": "หนองไผ่"
    },
    {
        "zip": "67220",
        "province": "เพชรบูรณ์",
        "district": "หนองไผ่"
    },
    {
        "zip": "67160",
        "province": "เพชรบูรณ์",
        "district": "บึงสามพัน"
    },
    {
        "zip": "67230",
        "province": "เพชรบูรณ์",
        "district": "บึงสามพัน"
    },
    {
        "zip": "67260",
        "province": "เพชรบูรณ์",
        "district": "น้ำหนาว"
    },
    {
        "zip": "67240",
        "province": "เพชรบูรณ์",
        "district": "วังโป่ง"
    },
    {
        "zip": "67270",
        "province": "เพชรบูรณ์",
        "district": "เขาค้อ"
    },
    {
        "zip": "67280",
        "province": "เพชรบูรณ์",
        "district": "เขาค้อ"
    },
    {
        "zip": "70000",
        "province": "ราชบุรี",
        "district": "เมืองราชบุรี"
    },
    {
        "zip": "70150",
        "province": "ราชบุรี",
        "district": "จอมบึง"
    },
    {
        "zip": "70180",
        "province": "ราชบุรี",
        "district": "สวนผึ้ง"
    },
    {
        "zip": "70130",
        "province": "ราชบุรี",
        "district": "ดำเนินสะดวก"
    },
    {
        "zip": "70210",
        "province": "ราชบุรี",
        "district": "ดำเนินสะดวก"
    },
    {
        "zip": "70110",
        "province": "ราชบุรี",
        "district": "บ้านโป่ง"
    },
    {
        "zip": "70190",
        "province": "ราชบุรี",
        "district": "บ้านโป่ง"
    },
    {
        "zip": "70160",
        "province": "ราชบุรี",
        "district": "บางแพ"
    },
    {
        "zip": "70120",
        "province": "ราชบุรี",
        "district": "โพธาราม"
    },
    {
        "zip": "70140",
        "province": "ราชบุรี",
        "district": "ปากท่อ"
    },
    {
        "zip": "70170",
        "province": "ราชบุรี",
        "district": "วัดเพลง"
    },
    {
        "zip": "70180",
        "province": "ราชบุรี",
        "district": "บ้านคา"
    },
    {
        "zip": "71000",
        "province": "กาญจนบุรี",
        "district": "เมืองกาญจนบุรี"
    },
    {
        "zip": "71190",
        "province": "กาญจนบุรี",
        "district": "เมืองกาญจนบุรี"
    },
    {
        "zip": "71150",
        "province": "กาญจนบุรี",
        "district": "ไทรโยค"
    },
    {
        "zip": "71160",
        "province": "กาญจนบุรี",
        "district": "บ่อพลอย"
    },
    {
        "zip": "71220",
        "province": "กาญจนบุรี",
        "district": "บ่อพลอย"
    },
    {
        "zip": "71250",
        "province": "กาญจนบุรี",
        "district": "ศรีสวัสดิ์"
    },
    {
        "zip": "71220",
        "province": "กาญจนบุรี",
        "district": "ศรีสวัสดิ์"
    },
    {
        "zip": "71120",
        "province": "กาญจนบุรี",
        "district": "ท่ามะกา"
    },
    {
        "zip": "71130",
        "province": "กาญจนบุรี",
        "district": "ท่ามะกา"
    },
    {
        "zip": "70190",
        "province": "กาญจนบุรี",
        "district": "ท่ามะกา"
    },
    {
        "zip": "71110",
        "province": "กาญจนบุรี",
        "district": "ท่าม่วง"
    },
    {
        "zip": "71130",
        "province": "กาญจนบุรี",
        "district": "ท่าม่วง"
    },
    {
        "zip": "71180",
        "province": "กาญจนบุรี",
        "district": "ทองผาภูมิ"
    },
    {
        "zip": "71240",
        "province": "กาญจนบุรี",
        "district": "สังขละบุรี"
    },
    {
        "zip": "71140",
        "province": "กาญจนบุรี",
        "district": "พนมทวน"
    },
    {
        "zip": "71170",
        "province": "กาญจนบุรี",
        "district": "พนมทวน"
    },
    {
        "zip": "71210",
        "province": "กาญจนบุรี",
        "district": "เลาขวัญ"
    },
    {
        "zip": "71260",
        "province": "กาญจนบุรี",
        "district": "ด่านมะขามเตี้ย"
    },
    {
        "zip": "71220",
        "province": "กาญจนบุรี",
        "district": "หนองปรือ"
    },
    {
        "zip": "71170",
        "province": "กาญจนบุรี",
        "district": "ห้วยกระเจา"
    },
    {
        "zip": "72000",
        "province": "สุพรรณบุรี",
        "district": "เมืองสุพรรณบุรี"
    },
    {
        "zip": "72230",
        "province": "สุพรรณบุรี",
        "district": "เมืองสุพรรณบุรี"
    },
    {
        "zip": "72210",
        "province": "สุพรรณบุรี",
        "district": "เมืองสุพรรณบุรี"
    },
    {
        "zip": "72120",
        "province": "สุพรรณบุรี",
        "district": "เดิมบางนางบวช"
    },
    {
        "zip": "72180",
        "province": "สุพรรณบุรี",
        "district": "ด่านช้าง"
    },
    {
        "zip": "72150",
        "province": "สุพรรณบุรี",
        "district": "บางปลาม้า"
    },
    {
        "zip": "72140",
        "province": "สุพรรณบุรี",
        "district": "ศรีประจันต์"
    },
    {
        "zip": "72170",
        "province": "สุพรรณบุรี",
        "district": "ดอนเจดีย์"
    },
    {
        "zip": "72250",
        "province": "สุพรรณบุรี",
        "district": "ดอนเจดีย์"
    },
    {
        "zip": "72110",
        "province": "สุพรรณบุรี",
        "district": "สองพี่น้อง"
    },
    {
        "zip": "72190",
        "province": "สุพรรณบุรี",
        "district": "สองพี่น้อง"
    },
    {
        "zip": "72130",
        "province": "สุพรรณบุรี",
        "district": "สามชุก"
    },
    {
        "zip": "72160",
        "province": "สุพรรณบุรี",
        "district": "อู่ทอง"
    },
    {
        "zip": "72220",
        "province": "สุพรรณบุรี",
        "district": "อู่ทอง"
    },
    {
        "zip": "72240",
        "province": "สุพรรณบุรี",
        "district": "หนองหญ้าไซ"
    },
    {
        "zip": "73000",
        "province": "นครปฐม",
        "district": "เมืองนครปฐม"
    },
    {
        "zip": "73140",
        "province": "นครปฐม",
        "district": "กำแพงแสน"
    },
    {
        "zip": "73180",
        "province": "นครปฐม",
        "district": "กำแพงแสน"
    },
    {
        "zip": "73120",
        "province": "นครปฐม",
        "district": "นครชัยศรี"
    },
    {
        "zip": "73150",
        "province": "นครปฐม",
        "district": "ดอนตูม"
    },
    {
        "zip": "73130",
        "province": "นครปฐม",
        "district": "บางเลน"
    },
    {
        "zip": "73190",
        "province": "นครปฐม",
        "district": "บางเลน"
    },
    {
        "zip": "73110",
        "province": "นครปฐม",
        "district": "สามพราน"
    },
    {
        "zip": "73210",
        "province": "นครปฐม",
        "district": "สามพราน"
    },
    {
        "zip": "73220",
        "province": "นครปฐม",
        "district": "สามพราน"
    },
    {
        "zip": "73160",
        "province": "นครปฐม",
        "district": "สามพราน"
    },
    {
        "zip": "73170",
        "province": "นครปฐม",
        "district": "พุทธมณฑล"
    },
    {
        "zip": "74000",
        "province": "สมุทรสาคร",
        "district": "เมืองสมุทรสาคร"
    },
    {
        "zip": "74110",
        "province": "สมุทรสาคร",
        "district": "กระทุ่มแบน"
    },
    {
        "zip": "74130",
        "province": "สมุทรสาคร",
        "district": "กระทุ่มแบน"
    },
    {
        "zip": "74120",
        "province": "สมุทรสาคร",
        "district": "บ้านแพ้ว"
    },
    {
        "zip": "75000",
        "province": "สมุทรสงคราม",
        "district": "เมืองสมุทรสงคราม"
    },
    {
        "zip": "75120",
        "province": "สมุทรสงคราม",
        "district": "บางคนที"
    },
    {
        "zip": "75110",
        "province": "สมุทรสงคราม",
        "district": "อัมพวา"
    },
    {
        "zip": "76000",
        "province": "เพชรบุรี",
        "district": "เมืองเพชรบุรี"
    },
    {
        "zip": "76100",
        "province": "เพชรบุรี",
        "district": "เมืองเพชรบุรี"
    },
    {
        "zip": "76140",
        "province": "เพชรบุรี",
        "district": "เขาย้อย"
    },
    {
        "zip": "76160",
        "province": "เพชรบุรี",
        "district": "หนองหญ้าปล้อง"
    },
    {
        "zip": "76120",
        "province": "เพชรบุรี",
        "district": "ชะอำ"
    },
    {
        "zip": "76130",
        "province": "เพชรบุรี",
        "district": "ท่ายาง"
    },
    {
        "zip": "76150",
        "province": "เพชรบุรี",
        "district": "บ้านลาด"
    },
    {
        "zip": "76110",
        "province": "เพชรบุรี",
        "district": "บ้านแหลม"
    },
    {
        "zip": "76100",
        "province": "เพชรบุรี",
        "district": "บ้านแหลม"
    },
    {
        "zip": "76170",
        "province": "เพชรบุรี",
        "district": "แก่งกระจาน"
    },
    {
        "zip": "77000",
        "province": "ประจวบคีรีขันธ์",
        "district": "เมืองประจวบคีรีขันธ์"
    },
    {
        "zip": "77210",
        "province": "ประจวบคีรีขันธ์",
        "district": "เมืองประจวบคีรีขันธ์"
    },
    {
        "zip": "77150",
        "province": "ประจวบคีรีขันธ์",
        "district": "กุยบุรี"
    },
    {
        "zip": "77130",
        "province": "ประจวบคีรีขันธ์",
        "district": "ทับสะแก"
    },
    {
        "zip": "77140",
        "province": "ประจวบคีรีขันธ์",
        "district": "บางสะพาน"
    },
    {
        "zip": "77230",
        "province": "ประจวบคีรีขันธ์",
        "district": "บางสะพาน"
    },
    {
        "zip": "77190",
        "province": "ประจวบคีรีขันธ์",
        "district": "บางสะพาน"
    },
    {
        "zip": "77170",
        "province": "ประจวบคีรีขันธ์",
        "district": "บางสะพานน้อย"
    },
    {
        "zip": "77120",
        "province": "ประจวบคีรีขันธ์",
        "district": "ปราณบุรี"
    },
    {
        "zip": "77220",
        "province": "ประจวบคีรีขันธ์",
        "district": "ปราณบุรี"
    },
    {
        "zip": "77110",
        "province": "ประจวบคีรีขันธ์",
        "district": "หัวหิน"
    },
    {
        "zip": "77120",
        "province": "ประจวบคีรีขันธ์",
        "district": "สามร้อยยอด"
    },
    {
        "zip": "77180",
        "province": "ประจวบคีรีขันธ์",
        "district": "สามร้อยยอด"
    },
    {
        "zip": "80000",
        "province": "นครศรีธรรมราช",
        "district": "เมืองนครศรีธรรมราช"
    },
    {
        "zip": "80280",
        "province": "นครศรีธรรมราช",
        "district": "เมืองนครศรีธรรมราช"
    },
    {
        "zip": "80330",
        "province": "นครศรีธรรมราช",
        "district": "เมืองนครศรีธรรมราช"
    },
    {
        "zip": "80320",
        "province": "นครศรีธรรมราช",
        "district": "พรหมคีรี"
    },
    {
        "zip": "80230",
        "province": "นครศรีธรรมราช",
        "district": "ลานสกา"
    },
    {
        "zip": "80150",
        "province": "นครศรีธรรมราช",
        "district": "ฉวาง"
    },
    {
        "zip": "80250",
        "province": "นครศรีธรรมราช",
        "district": "ฉวาง"
    },
    {
        "zip": "80260",
        "province": "นครศรีธรรมราช",
        "district": "ฉวาง"
    },
    {
        "zip": "80270",
        "province": "นครศรีธรรมราช",
        "district": "พิปูน"
    },
    {
        "zip": "80190",
        "province": "นครศรีธรรมราช",
        "district": "เชียรใหญ่"
    },
    {
        "zip": "80180",
        "province": "นครศรีธรรมราช",
        "district": "ชะอวด"
    },
    {
        "zip": "80160",
        "province": "นครศรีธรรมราช",
        "district": "ท่าศาลา"
    },
    {
        "zip": "80110",
        "province": "นครศรีธรรมราช",
        "district": "ทุ่งสง"
    },
    {
        "zip": "80310",
        "province": "นครศรีธรรมราช",
        "district": "ทุ่งสง"
    },
    {
        "zip": "80220",
        "province": "นครศรีธรรมราช",
        "district": "นาบอน"
    },
    {
        "zip": "80240",
        "province": "นครศรีธรรมราช",
        "district": "ทุ่งใหญ่"
    },
    {
        "zip": "80140",
        "province": "นครศรีธรรมราช",
        "district": "ปากพนัง"
    },
    {
        "zip": "80330",
        "province": "นครศรีธรรมราช",
        "district": "ปากพนัง"
    },
    {
        "zip": "80130",
        "province": "นครศรีธรรมราช",
        "district": "ร่อนพิบูลย์"
    },
    {
        "zip": "80350",
        "province": "นครศรีธรรมราช",
        "district": "ร่อนพิบูลย์"
    },
    {
        "zip": "80120",
        "province": "นครศรีธรรมราช",
        "district": "สิชล"
    },
    {
        "zip": "80340",
        "province": "นครศรีธรรมราช",
        "district": "สิชล"
    },
    {
        "zip": "80210",
        "province": "นครศรีธรรมราช",
        "district": "ขนอม"
    },
    {
        "zip": "80170",
        "province": "นครศรีธรรมราช",
        "district": "หัวไทร"
    },
    {
        "zip": "80360",
        "province": "นครศรีธรรมราช",
        "district": "บางขัน"
    },
    {
        "zip": "80260",
        "province": "นครศรีธรรมราช",
        "district": "ถ้ำพรรณรา"
    },
    {
        "zip": "80180",
        "province": "นครศรีธรรมราช",
        "district": "จุฬาภรณ์"
    },
    {
        "zip": "80130",
        "province": "นครศรีธรรมราช",
        "district": "จุฬาภรณ์"
    },
    {
        "zip": "80000",
        "province": "นครศรีธรรมราช",
        "district": "พระพรหม"
    },
    {
        "zip": "80160",
        "province": "นครศรีธรรมราช",
        "district": "นบพิตำ"
    },
    {
        "zip": "80250",
        "province": "นครศรีธรรมราช",
        "district": "ช้างกลาง"
    },
    {
        "zip": "80190",
        "province": "นครศรีธรรมราช",
        "district": "เฉลิมพระเกียรติ"
    },
    {
        "zip": "80290",
        "province": "นครศรีธรรมราช",
        "district": "เฉลิมพระเกียรติ"
    },
    {
        "zip": "81000",
        "province": "กระบี่",
        "district": "เมืองกระบี่"
    },
    {
        "zip": "81140",
        "province": "กระบี่",
        "district": "เขาพนม"
    },
    {
        "zip": "80240",
        "province": "กระบี่",
        "district": "เขาพนม"
    },
    {
        "zip": "81150",
        "province": "กระบี่",
        "district": "เกาะลันตา"
    },
    {
        "zip": "81120",
        "province": "กระบี่",
        "district": "เกาะลันตา"
    },
    {
        "zip": "81120",
        "province": "กระบี่",
        "district": "คลองท่อม"
    },
    {
        "zip": "81170",
        "province": "กระบี่",
        "district": "คลองท่อม"
    },
    {
        "zip": "81110",
        "province": "กระบี่",
        "district": "อ่าวลึก"
    },
    {
        "zip": "81160",
        "province": "กระบี่",
        "district": "ปลายพระยา"
    },
    {
        "zip": "81120",
        "province": "กระบี่",
        "district": "ลำทับ"
    },
    {
        "zip": "81130",
        "province": "กระบี่",
        "district": "เหนือคลอง"
    },
    {
        "zip": "82000",
        "province": "พังงา",
        "district": "เมืองพังงา"
    },
    {
        "zip": "82160",
        "province": "พังงา",
        "district": "เกาะยาว"
    },
    {
        "zip": "83000",
        "province": "พังงา",
        "district": "เกาะยาว"
    },
    {
        "zip": "82170",
        "province": "พังงา",
        "district": "กะปง"
    },
    {
        "zip": "82130",
        "province": "พังงา",
        "district": "ตะกั่วทุ่ง"
    },
    {
        "zip": "82140",
        "province": "พังงา",
        "district": "ตะกั่วทุ่ง"
    },
    {
        "zip": "82110",
        "province": "พังงา",
        "district": "ตะกั่วป่า"
    },
    {
        "zip": "82190",
        "province": "พังงา",
        "district": "ตะกั่วป่า"
    },
    {
        "zip": "82150",
        "province": "พังงา",
        "district": "คุระบุรี"
    },
    {
        "zip": "82180",
        "province": "พังงา",
        "district": "ทับปุด"
    },
    {
        "zip": "82120",
        "province": "พังงา",
        "district": "ท้ายเหมือง"
    },
    {
        "zip": "83000",
        "province": "ภูเก็ต",
        "district": "เมืองภูเก็ต"
    },
    {
        "zip": "83130",
        "province": "ภูเก็ต",
        "district": "เมืองภูเก็ต"
    },
    {
        "zip": "83100",
        "province": "ภูเก็ต",
        "district": "เมืองภูเก็ต"
    },
    {
        "zip": "83120",
        "province": "ภูเก็ต",
        "district": "กะทู้"
    },
    {
        "zip": "83150",
        "province": "ภูเก็ต",
        "district": "กะทู้"
    },
    {
        "zip": "83110",
        "province": "ภูเก็ต",
        "district": "ถลาง"
    },
    {
        "zip": "84000",
        "province": "สุราษฎร์ธานี",
        "district": "เมืองสุราษฎร์ธานี"
    },
    {
        "zip": "84100",
        "province": "สุราษฎร์ธานี",
        "district": "เมืองสุราษฎร์ธานี"
    },
    {
        "zip": "84290",
        "province": "สุราษฎร์ธานี",
        "district": "กาญจนดิษฐ์"
    },
    {
        "zip": "84160",
        "province": "สุราษฎร์ธานี",
        "district": "กาญจนดิษฐ์"
    },
    {
        "zip": "84220",
        "province": "สุราษฎร์ธานี",
        "district": "ดอนสัก"
    },
    {
        "zip": "84160",
        "province": "สุราษฎร์ธานี",
        "district": "ดอนสัก"
    },
    {
        "zip": "84340",
        "province": "สุราษฎร์ธานี",
        "district": "ดอนสัก"
    },
    {
        "zip": "84140",
        "province": "สุราษฎร์ธานี",
        "district": "เกาะสมุย"
    },
    {
        "zip": "84310",
        "province": "สุราษฎร์ธานี",
        "district": "เกาะสมุย"
    },
    {
        "zip": "84320",
        "province": "สุราษฎร์ธานี",
        "district": "เกาะสมุย"
    },
    {
        "zip": "84330",
        "province": "สุราษฎร์ธานี",
        "district": "เกาะสมุย"
    },
    {
        "zip": "84280",
        "province": "สุราษฎร์ธานี",
        "district": "เกาะพะงัน"
    },
    {
        "zip": "84110",
        "province": "สุราษฎร์ธานี",
        "district": "ไชยา"
    },
    {
        "zip": "84170",
        "province": "สุราษฎร์ธานี",
        "district": "ท่าชนะ"
    },
    {
        "zip": "84180",
        "province": "สุราษฎร์ธานี",
        "district": "คีรีรัฐนิคม"
    },
    {
        "zip": "84230",
        "province": "สุราษฎร์ธานี",
        "district": "บ้านตาขุน"
    },
    {
        "zip": "84250",
        "province": "สุราษฎร์ธานี",
        "district": "พนม"
    },
    {
        "zip": "84150",
        "province": "สุราษฎร์ธานี",
        "district": "ท่าฉาง"
    },
    {
        "zip": "84120",
        "province": "สุราษฎร์ธานี",
        "district": "บ้านนาสาร"
    },
    {
        "zip": "84270",
        "province": "สุราษฎร์ธานี",
        "district": "บ้านนาสาร"
    },
    {
        "zip": "84240",
        "province": "สุราษฎร์ธานี",
        "district": "บ้านนาเดิม"
    },
    {
        "zip": "84260",
        "province": "สุราษฎร์ธานี",
        "district": "เคียนซา"
    },
    {
        "zip": "84210",
        "province": "สุราษฎร์ธานี",
        "district": "เคียนซา"
    },
    {
        "zip": "84190",
        "province": "สุราษฎร์ธานี",
        "district": "เวียงสระ"
    },
    {
        "zip": "84210",
        "province": "สุราษฎร์ธานี",
        "district": "พระแสง"
    },
    {
        "zip": "84130",
        "province": "สุราษฎร์ธานี",
        "district": "พุนพิน"
    },
    {
        "zip": "84350",
        "province": "สุราษฎร์ธานี",
        "district": "ชัยบุรี"
    },
    {
        "zip": "84180",
        "province": "สุราษฎร์ธานี",
        "district": "วิภาวดี"
    },
    {
        "zip": "85000",
        "province": "ระนอง",
        "district": "เมืองระนอง"
    },
    {
        "zip": "85130",
        "province": "ระนอง",
        "district": "เมืองระนอง"
    },
    {
        "zip": "85130",
        "province": "ระนอง",
        "district": "ละอุ่น"
    },
    {
        "zip": "85119",
        "province": "ระนอง",
        "district": "กะเปอร์"
    },
    {
        "zip": "85110",
        "province": "ระนอง",
        "district": "กระบุรี"
    },
    {
        "zip": "85120",
        "province": "ระนอง",
        "district": "สุขสำราญ"
    },
    {
        "zip": "86000",
        "province": "ชุมพร",
        "district": "เมืองชุมพร"
    },
    {
        "zip": "86120",
        "province": "ชุมพร",
        "district": "เมืองชุมพร"
    },
    {
        "zip": "86190",
        "province": "ชุมพร",
        "district": "เมืองชุมพร"
    },
    {
        "zip": "86100",
        "province": "ชุมพร",
        "district": "เมืองชุมพร"
    },
    {
        "zip": "86140",
        "province": "ชุมพร",
        "district": "ท่าแซะ"
    },
    {
        "zip": "86190",
        "province": "ชุมพร",
        "district": "ท่าแซะ"
    },
    {
        "zip": "86160",
        "province": "ชุมพร",
        "district": "ปะทิว"
    },
    {
        "zip": "86230",
        "province": "ชุมพร",
        "district": "ปะทิว"
    },
    {
        "zip": "86210",
        "province": "ชุมพร",
        "district": "ปะทิว"
    },
    {
        "zip": "86110",
        "province": "ชุมพร",
        "district": "หลังสวน"
    },
    {
        "zip": "86150",
        "province": "ชุมพร",
        "district": "หลังสวน"
    },
    {
        "zip": "86170",
        "province": "ชุมพร",
        "district": "ละแม"
    },
    {
        "zip": "86180",
        "province": "ชุมพร",
        "district": "พะโต๊ะ"
    },
    {
        "zip": "86130",
        "province": "ชุมพร",
        "district": "สวี"
    },
    {
        "zip": "86220",
        "province": "ชุมพร",
        "district": "ทุ่งตะโก"
    },
    {
        "zip": "90000",
        "province": "สงขลา",
        "district": "เมืองสงขลา"
    },
    {
        "zip": "90100",
        "province": "สงขลา",
        "district": "เมืองสงขลา"
    },
    {
        "zip": "90190",
        "province": "สงขลา",
        "district": "สทิงพระ"
    },
    {
        "zip": "90130",
        "province": "สงขลา",
        "district": "จะนะ"
    },
    {
        "zip": "90160",
        "province": "สงขลา",
        "district": "นาทวี"
    },
    {
        "zip": "90150",
        "province": "สงขลา",
        "district": "เทพา"
    },
    {
        "zip": "90260",
        "province": "สงขลา",
        "district": "เทพา"
    },
    {
        "zip": "90210",
        "province": "สงขลา",
        "district": "สะบ้าย้อย"
    },
    {
        "zip": "90140",
        "province": "สงขลา",
        "district": "ระโนด"
    },
    {
        "zip": "90270",
        "province": "สงขลา",
        "district": "กระแสสินธุ์"
    },
    {
        "zip": "90180",
        "province": "สงขลา",
        "district": "รัตภูมิ"
    },
    {
        "zip": "90120",
        "province": "สงขลา",
        "district": "สะเดา"
    },
    {
        "zip": "90170",
        "province": "สงขลา",
        "district": "สะเดา"
    },
    {
        "zip": "90240",
        "province": "สงขลา",
        "district": "สะเดา"
    },
    {
        "zip": "90110",
        "province": "สงขลา",
        "district": "หาดใหญ่"
    },
    {
        "zip": "90250",
        "province": "สงขลา",
        "district": "หาดใหญ่"
    },
    {
        "zip": "90230",
        "province": "สงขลา",
        "district": "หาดใหญ่"
    },
    {
        "zip": "90310",
        "province": "สงขลา",
        "district": "นาหม่อม"
    },
    {
        "zip": "90220",
        "province": "สงขลา",
        "district": "ควนเนียง"
    },
    {
        "zip": "90110",
        "province": "สงขลา",
        "district": "บางกล่ำ"
    },
    {
        "zip": "90280",
        "province": "สงขลา",
        "district": "สิงหนคร"
    },
    {
        "zip": "90330",
        "province": "สงขลา",
        "district": "สิงหนคร"
    },
    {
        "zip": "90230",
        "province": "สงขลา",
        "district": "คลองหอยโข่ง"
    },
    {
        "zip": "90115",
        "province": "สงขลา",
        "district": "คลองหอยโข่ง"
    },
    {
        "zip": "91000",
        "province": "สตูล",
        "district": "เมืองสตูล"
    },
    {
        "zip": "91140",
        "province": "สตูล",
        "district": "เมืองสตูล"
    },
    {
        "zip": "91160",
        "province": "สตูล",
        "district": "ควนโดน"
    },
    {
        "zip": "91130",
        "province": "สตูล",
        "district": "ควนกาหลง"
    },
    {
        "zip": "91150",
        "province": "สตูล",
        "district": "ท่าแพ"
    },
    {
        "zip": "91110",
        "province": "สตูล",
        "district": "ละงู"
    },
    {
        "zip": "91120",
        "province": "สตูล",
        "district": "ทุ่งหว้า"
    },
    {
        "zip": "91130",
        "province": "สตูล",
        "district": "มะนัง"
    },
    {
        "zip": "92000",
        "province": "ตรัง",
        "district": "เมืองตรัง"
    },
    {
        "zip": "92170",
        "province": "ตรัง",
        "district": "เมืองตรัง"
    },
    {
        "zip": "92190",
        "province": "ตรัง",
        "district": "เมืองตรัง"
    },
    {
        "zip": "92110",
        "province": "ตรัง",
        "district": "กันตัง"
    },
    {
        "zip": "92140",
        "province": "ตรัง",
        "district": "ย่านตาขาว"
    },
    {
        "zip": "92120",
        "province": "ตรัง",
        "district": "ปะเหลียน"
    },
    {
        "zip": "92180",
        "province": "ตรัง",
        "district": "ปะเหลียน"
    },
    {
        "zip": "92140",
        "province": "ตรัง",
        "district": "ปะเหลียน"
    },
    {
        "zip": "92150",
        "province": "ตรัง",
        "district": "สิเกา"
    },
    {
        "zip": "92000",
        "province": "ตรัง",
        "district": "สิเกา"
    },
    {
        "zip": "92130",
        "province": "ตรัง",
        "district": "ห้วยยอด"
    },
    {
        "zip": "92210",
        "province": "ตรัง",
        "district": "ห้วยยอด"
    },
    {
        "zip": "92190",
        "province": "ตรัง",
        "district": "ห้วยยอด"
    },
    {
        "zip": "92220",
        "province": "ตรัง",
        "district": "วังวิเศษ"
    },
    {
        "zip": "92000",
        "province": "ตรัง",
        "district": "วังวิเศษ"
    },
    {
        "zip": "92170",
        "province": "ตรัง",
        "district": "นาโยง"
    },
    {
        "zip": "92160",
        "province": "ตรัง",
        "district": "รัษฎา"
    },
    {
        "zip": "92130",
        "province": "ตรัง",
        "district": "รัษฎา"
    },
    {
        "zip": "92120",
        "province": "ตรัง",
        "district": "หาดสำราญ"
    },
    {
        "zip": "93000",
        "province": "พัทลุง",
        "district": "เมืองพัทลุง"
    },
    {
        "zip": "93180",
        "province": "พัทลุง",
        "district": "กงหรา"
    },
    {
        "zip": "93000",
        "province": "พัทลุง",
        "district": "กงหรา"
    },
    {
        "zip": "93130",
        "province": "พัทลุง",
        "district": "เขาชัยสน"
    },
    {
        "zip": "93160",
        "province": "พัทลุง",
        "district": "ตะโหมด"
    },
    {
        "zip": "93110",
        "province": "พัทลุง",
        "district": "ควนขนุน"
    },
    {
        "zip": "93150",
        "province": "พัทลุง",
        "district": "ควนขนุน"
    },
    {
        "zip": "93120",
        "province": "พัทลุง",
        "district": "ปากพะยูน"
    },
    {
        "zip": "93190",
        "province": "พัทลุง",
        "district": "ศรีบรรพต"
    },
    {
        "zip": "93170",
        "province": "พัทลุง",
        "district": "ป่าบอน"
    },
    {
        "zip": "93140",
        "province": "พัทลุง",
        "district": "บางแก้ว"
    },
    {
        "zip": "93110",
        "province": "พัทลุง",
        "district": "ป่าพะยอม"
    },
    {
        "zip": "93000",
        "province": "พัทลุง",
        "district": "ศรีนครินทร์"
    },
    {
        "zip": "94000",
        "province": "ปัตตานี",
        "district": "เมืองปัตตานี"
    },
    {
        "zip": "94120",
        "province": "ปัตตานี",
        "district": "โคกโพธิ์"
    },
    {
        "zip": "94180",
        "province": "ปัตตานี",
        "district": "โคกโพธิ์"
    },
    {
        "zip": "94170",
        "province": "ปัตตานี",
        "district": "หนองจิก"
    },
    {
        "zip": "94130",
        "province": "ปัตตานี",
        "district": "ปะนาเระ"
    },
    {
        "zip": "94190",
        "province": "ปัตตานี",
        "district": "ปะนาเระ"
    },
    {
        "zip": "94140",
        "province": "ปัตตานี",
        "district": "มายอ"
    },
    {
        "zip": "94190",
        "province": "ปัตตานี",
        "district": "มายอ"
    },
    {
        "zip": "94140",
        "province": "ปัตตานี",
        "district": "ทุ่งยางแดง"
    },
    {
        "zip": "94110",
        "province": "ปัตตานี",
        "district": "สายบุรี"
    },
    {
        "zip": "94190",
        "province": "ปัตตานี",
        "district": "สายบุรี"
    },
    {
        "zip": "94220",
        "province": "ปัตตานี",
        "district": "ไม้แก่น"
    },
    {
        "zip": "94150",
        "province": "ปัตตานี",
        "district": "ยะหริ่ง"
    },
    {
        "zip": "94190",
        "province": "ปัตตานี",
        "district": "ยะหริ่ง"
    },
    {
        "zip": "94160",
        "province": "ปัตตานี",
        "district": "ยะรัง"
    },
    {
        "zip": "94230",
        "province": "ปัตตานี",
        "district": "กะพ้อ"
    },
    {
        "zip": "94180",
        "province": "ปัตตานี",
        "district": "แม่ลาน"
    },
    {
        "zip": "95000",
        "province": "ยะลา",
        "district": "เมืองยะลา"
    },
    {
        "zip": "95160",
        "province": "ยะลา",
        "district": "เมืองยะลา"
    },
    {
        "zip": "95110",
        "province": "ยะลา",
        "district": "เบตง"
    },
    {
        "zip": "95130",
        "province": "ยะลา",
        "district": "บันนังสตา"
    },
    {
        "zip": "95150",
        "province": "ยะลา",
        "district": "ธารโต"
    },
    {
        "zip": "95170",
        "province": "ยะลา",
        "district": "ธารโต"
    },
    {
        "zip": "95120",
        "province": "ยะลา",
        "district": "ยะหา"
    },
    {
        "zip": "95140",
        "province": "ยะลา",
        "district": "รามัน"
    },
    {
        "zip": "95120",
        "province": "ยะลา",
        "district": "กาบัง"
    },
    {
        "zip": "95000",
        "province": "ยะลา",
        "district": "กรงปินัง"
    },
    {
        "zip": "96000",
        "province": "นราธิวาส",
        "district": "เมืองนราธิวาส"
    },
    {
        "zip": "96110",
        "province": "นราธิวาส",
        "district": "ตากใบ"
    },
    {
        "zip": "96170",
        "province": "นราธิวาส",
        "district": "บาเจาะ"
    },
    {
        "zip": "96180",
        "province": "นราธิวาส",
        "district": "ยี่งอ"
    },
    {
        "zip": "96130",
        "province": "นราธิวาส",
        "district": "ระแงะ"
    },
    {
        "zip": "96220",
        "province": "นราธิวาส",
        "district": "ระแงะ"
    },
    {
        "zip": "96150",
        "province": "นราธิวาส",
        "district": "รือเสาะ"
    },
    {
        "zip": "96210",
        "province": "นราธิวาส",
        "district": "ศรีสาคร"
    },
    {
        "zip": "96160",
        "province": "นราธิวาส",
        "district": "แว้ง"
    },
    {
        "zip": "96190",
        "province": "นราธิวาส",
        "district": "สุคิริน"
    },
    {
        "zip": "96120",
        "province": "นราธิวาส",
        "district": "สุไหงโกลก"
    },
    {
        "zip": "96140",
        "province": "นราธิวาส",
        "district": "สุไหงปาดี"
    },
    {
        "zip": "96220",
        "province": "นราธิวาส",
        "district": "จะแนะ"
    },
    {
        "zip": "96130",
        "province": "นราธิวาส",
        "district": "เจาะไอร้อง"
    }
]